Unnamed: 0,pair,pair_reverse,exchange_name,exchange,address,address0,address1,symbol0,symbol1,fee,decimal0,decimal1,exchange_version,exchange_id,exchange_type,anchor
102,USDC_WETH,WETH_USDC,sushiswap,sushiswap_v2,0x397FF1542f962076d0BFE58eA045FfA2d347ACa0,0xA0b86991c6218b36c1d19D4a2e9Eb0cE3606eB48,0xC02aaA39b223FE8D0A0e5C4F27eAD9083C756Cc2,USDC,WETH,0.003,6,18,v2,5,Constant Product Pool,
103,DAI_WETH,WETH_DAI,sushiswap,sushiswap_v2,0xC3D03e4F041Fd4cD388c549Ee2A29a9E5075882f,0x6B175474E89094C44Da98b954EedeAC495271d0F,0xC02aaA39b223FE8D0A0e5C4F27eAD9083C756Cc2,DAI,WETH,0.003,18,18,v2,5,Constant Product Pool,
104,WETH_USDT,USDT_WETH,sushiswap,sushiswap_v2,0x06da0fd433C1A5d7a4faa01111c044910A184553,0xC02aaA39b223FE8D0A0e5C4F27eAD9083C756Cc2,0xdAC17F958D2ee523a2206206994597C13D831ec7,WETH,USDT,0.003,18,6,v2,5,Constant Product Pool,
105,LINK_WETH,WETH_LINK,sushiswap,sushiswap_v2,0xC40D16476380e4037e6b1A2594cAF6a6cc8Da967,0x514910771AF9Ca656af840dff83E8264EcF986CA,0xC02aaA39b223FE8D0A0e5C4F27eAD9083C756Cc2,LINK,WETH,0.003,18,18,v2,5,Constant Product Pool,
106,WBTC_WETH,WETH_WBTC,sushiswap,sushiswap_v2,0xCEfF51756c56CeFFCA006cD410B03FFC46dd3a58,0x2260FAC5E5542a773Aa44fBCfeDf7C193bc2C599,0xC02aaA39b223FE8D0A0e5C4F27eAD9083C756Cc2,WBTC,WETH,0.003,8,18,v2,5,Constant Product Pool,
107,WOO_WETH,WETH_WOO,sushiswap,sushiswap_v2,0x4FCf718855Fe7bBb16177ce24566263Aa026F8dd,0x4691937a7508860F876c9c0a2a617E7d9E945D4B,0xC02aaA39b223FE8D0A0e5C4F27eAD9083C756Cc2,WOO,WETH,0.003,18,18,v2,5,Constant Product Pool,
108,WETH_ENJ,ENJ_WETH,sushiswap,sushiswap_v2,0x6D7c40746Accd8e028Da5848E38093e5BaFE8a18,0xC02aaA39b223FE8D0A0e5C4F27eAD9083C756Cc2,0xF629cBd94d3791C9250152BD8dfBDF380E2a3B9c,WETH,ENJ,0.003,18,18,v2,5,Constant Product Pool,
109,HOT_WETH,WETH_HOT,sushiswap,sushiswap_v2,0xb4f3B00d13D20409AfD9488ab991d0b40E6a5219,0x6c6EE5e31d828De241282B9606C8e98Ea48526E2,0xC02aaA39b223FE8D0A0e5C4F27eAD9083C756Cc2,HOT,WETH,0.003,18,18,v2,5,Constant Product Pool,
110,BNT_ETH,ETH_BNT,bancor,bancor_v2,0x4c9a2bD661D640dA3634A4988a9Bd2Bc0f18e5a9,0x1F573D6Fb3F13d689FF844B4cE37794d79a7FF1C,0xEeeeeEeeeEeEeeEeEeEeeEEEeeeeEeeeeeeeEEeE,BNT,ETH,0.001,18,18,v2,1,Constant Product Pool,0xb1CD6e4153B2a390Cf00A6556b0fC1458C4A5533
111,BNT_DAI,DAI_BNT,bancor,bancor_v2,0xaB7aE646063087317C1f410c6661364779f87d73,0x1F573D6Fb3F13d689FF844B4cE37794d79a7FF1C,0x6B175474E89094C44Da98b954EedeAC495271d0F,BNT,DAI,0.01,18,18,v2,1,Constant Product Pool,0xE5Df055773Bf9710053923599504831c7DBdD697
112,LINK_BNT,BNT_LINK,bancor,bancor_v2,0x8df51A9714aE6357a5B829CC8d677b43D7e8BD53,0x514910771AF9Ca656af840dff83E8264EcF986CA,0x1F573D6Fb3F13d689FF844B4cE37794d79a7FF1C,LINK,BNT,0.005,18,18,v2,1,Constant Product Pool,0x04D0231162b4784b706908c787CE32bD075db9b7
113,AAVE_BNT,BNT_AAVE,bancor,bancor_v2,0x5bA42FaCDBc4aEAe6bEFcc567fd62e9242Fc69Ad,0x7Fc66500c84A76Ad7e9c93437bFc5Ac33E2DDaE9,0x1F573D6Fb3F13d689FF844B4cE37794d79a7FF1C,AAVE,BNT,0.002,18,18,v2,1,Constant Product Pool,0x6c84F4ccC916ACf792538f1293b286b540906A2a
114,BNT_ALPHA,ALPHA_BNT,bancor,bancor_v2,0xF8d9b7691E7721A8697e1D72725375A7aBFDf670,0x1F573D6Fb3F13d689FF844B4cE37794d79a7FF1C,0xa1faa113cbE53436Df28FF0aEe54275c13B40975,BNT,ALPHA,0.002,18,18,v2,1,Constant Product Pool,0x13FAC856D064ACE14Cd4E253cD7B35850c44D07d
115,BNT_AMP,AMP_BNT,bancor,bancor_v2,0x6a74941C1Cf4151b3f15CdD84eE3abDe713A999B,0x1F573D6Fb3F13d689FF844B4cE37794d79a7FF1C,0xfF20817765cB7f73d4bde2e66e067E58D11095C2,BNT,AMP,0.01,18,18,v2,1,Constant Product Pool,0xFEdD9fEF8f30b78fa14E2b7841A66AbA5EA5e850
116,BNT_ANT,ANT_BNT,bancor,bancor_v2,0x72f77088D3307b678D428CDf55474600Beb02E4C,0x1F573D6Fb3F13d689FF844B4cE37794d79a7FF1C,0x960b236A07cf122663c4303350609A66A7B288C0,BNT,ANT,0.005,18,18,v2,1,Constant Product Pool,0x0c485BffD5df019F66927B2C32360159884D4409
117,BNT_AUC,AUC_BNT,bancor,bancor_v2,0xFeA136eEa22e4146432d6a9390e208271d421124,0x1F573D6Fb3F13d689FF844B4cE37794d79a7FF1C,0xc12d099be31567add4e4e4d0D45691C3F58f5663,BNT,AUC,0.002,18,18,v2,1,Constant Product Pool,0xe3b17228Cf09C0C6F1e2E9F93E507e9039cABb87
118,BNT_BAT,BAT_BNT,bancor,bancor_v2,0xd72e360Eb08B36450849dc533edC1B8dB1Bd6D91,0x1F573D6Fb3F13d689FF844B4cE37794d79a7FF1C,0x0D8775F648430679A709E98d2b0Cb6250d2887EF,BNT,BAT,0.005,18,18,v2,1,Constant Product Pool,0x131da075a2832549128e93AcC2b54174045232Cf
119,BNT_BBADGER,BBADGER_BNT,bancor,bancor_v2,0x600504326B902A7E83BD6F2081b1142F4A82F951,0x1F573D6Fb3F13d689FF844B4cE37794d79a7FF1C,0x19D97D8fA813EE2f51aD4B4e04EA08bAf4DFfC28,BNT,BBADGER,0.003,18,18,v2,1,Constant Product Pool,0x22c876b7c93b222033Af648316c5Ab0dee1D4B4c
120,BNT_BBS,BBS_BNT,bancor,bancor_v2,0xD591d1A290f9a2B8daFDb9248b9e34E8d8619645,0x1F573D6Fb3F13d689FF844B4cE37794d79a7FF1C,0xFe459828c90c0BA4bC8b42F5C5D44F316700B430,BNT,BBS,0.002,18,18,v2,1,Constant Product Pool,0x0dcA718541EBC4E50eB4D143bE9A99f353b457F5
121,BNT_BORING,BORING_BNT,bancor,bancor_v2,0x6c9C4D90d47D25e74f069d4D20e989b84Ed83Edf,0x1F573D6Fb3F13d689FF844B4cE37794d79a7FF1C,0xBC19712FEB3a26080eBf6f2F7849b417FdD792CA,BNT,BORING,0.003,18,18,v2,1,Constant Product Pool,0x767B7e151D66a90B9539a02709361D711bdDfC04
122,COMP_BNT,BNT_COMP,bancor,bancor_v2,0xCccd215ec03a8EBfA24f82Bd0CAB56178a18Bf18,0xc00e94Cb662C3520282E6f5717214004A7f26888,0x1F573D6Fb3F13d689FF844B4cE37794d79a7FF1C,COMP,BNT,0.002,18,18,v2,1,Constant Product Pool,0xB4c5BC0d1d41F3440c580A0F52B6641E4A913Df4
123,BNT_DAPP,DAPP_BNT,bancor,bancor_v2,0xD3840a74e6111F3D37A93dd67673F3de136E598A,0x1F573D6Fb3F13d689FF844B4cE37794d79a7FF1C,0x939B462ee3311f8926c047D2B576C389092b1649,BNT,DAPP,0.002,18,4,v2,1,Constant Product Pool,0x33A23d447De16a8Ff802c9Fcc917465Df01A3977
124,BNT_DATA,DATA_BNT,bancor,bancor_v2,0xb068bfEA5Ab7852FE437E361E73963900a96FA71,0x1F573D6Fb3F13d689FF844B4cE37794d79a7FF1C,0x8f693ca8D21b157107184d29D398A8D082b38b76,BNT,DATA,0.002,18,18,v2,1,Constant Product Pool,0x4e79b3495b036e0720655CDF68E7E686B8276F89
125,BNT_DEXE,DEXE_BNT,bancor,bancor_v2,0xd826AF646CD3420510D0731C8CEE06dF21D132EA,0x1F573D6Fb3F13d689FF844B4cE37794d79a7FF1C,0xde4EE8057785A7e8e800Db58F9784845A5C2Cbd6,BNT,DEXE,0.002,18,18,v2,1,Constant Product Pool,0xD1960166f1Fda11d4aF81a3E197F1efE5FC30f79
126,BNT_DRC,DRC_BNT,bancor,bancor_v2,0x67ebF3818E399992CD09e49143141622fED85342,0x1F573D6Fb3F13d689FF844B4cE37794d79a7FF1C,0xa150Db9b1Fa65b44799d4dD949D922c0a33Ee606,BNT,DRC,0.002,18,0,v2,1,Constant Product Pool,0x8BB452672224540129EACfa7Cf56310bc4C5A75A
127,BNT_DUSK,DUSK_BNT,bancor,bancor_v2,0xCcCc18d87D33EB164AbdD21F7bCb0A51CA9Dad6B,0x1F573D6Fb3F13d689FF844B4cE37794d79a7FF1C,0x940a2dB1B7008B6C776d4faaCa729d6d4A4AA551,BNT,DUSK,0.002,18,18,v2,1,Constant Product Pool,0x042F44948D0639564c915025009F3B48E162887E
128,BNT_EDEN,EDEN_BNT,bancor,bancor_v2,0x3870Ce6642959E3D844837Fd472E717736E06AAe,0x1F573D6Fb3F13d689FF844B4cE37794d79a7FF1C,0x1559FA1b8F28238FD5D76D9f434ad86FD20D1559,BNT,EDEN,0.002,18,18,v2,1,Constant Product Pool,0x36Bf0258Bf24f8066A7D486a7d376265b07a7b5f
129,BNT_ENJ,ENJ_BNT,bancor,bancor_v2,0xFe42619e3f6547188e2ed10280176B9e4FAe0c6c,0x1F573D6Fb3F13d689FF844B4cE37794d79a7FF1C,0xF629cBd94d3791C9250152BD8dfBDF380E2a3B9c,BNT,ENJ,0.005,18,18,v2,1,Constant Product Pool,0xf3aD2cBc4276eb4B0fb627Af0059CfcE094E20a1
130,BNT_ERSDL,ERSDL_BNT,bancor,bancor_v2,0x2eE4b38A3AfED00b66f45ad3A849D091D7aaCcCb,0x1F573D6Fb3F13d689FF844B4cE37794d79a7FF1C,0x5218E472cFCFE0b64A064F055B43b4cdC9EfD3A6,BNT,ERSDL,0.002,18,18,v2,1,Constant Product Pool,0x1D3E13199e403eE1c1193549f2B257efde9Bb69A
131,BNT_FARM,FARM_BNT,bancor,bancor_v2,0x93334ab8a64B24DF7b2fD2132E0e087239A21B63,0x1F573D6Fb3F13d689FF844B4cE37794d79a7FF1C,0xa0246c9032bC3A600820415aE600c6388619A14D,BNT,FARM,0.002,18,18,v2,1,Constant Product Pool,0x4bA657a5086DFa3698884d82A94564629885b7d6
132,BNT_FODL,FODL_BNT,bancor,bancor_v2,0x043CA1F3Aa6939041e57d6Eb7811Cf5C6e56827E,0x1F573D6Fb3F13d689FF844B4cE37794d79a7FF1C,0x4C2e59D098DF7b6cBaE0848d66DE2f8A4889b9C3,BNT,FODL,0.003,18,18,v2,1,Constant Product Pool,0x83ef55Db6D98cf6097F464F307e461d0a37b0A77
133,BNT_FRM,FRM_BNT,bancor,bancor_v2,0x05A3609ecB880760fe5392b8F37c3c6C70144D0C,0x1F573D6Fb3F13d689FF844B4cE37794d79a7FF1C,0xE5CAeF4Af8780E59Df925470b050Fb23C43CA68C,BNT,FRM,0.002,18,6,v2,1,Constant Product Pool,0x6F239e3f2616700D1f3a294b122145B6567C8801
134,BNT_GNO,GNO_BNT,bancor,bancor_v2,0xF49D2fDa023d2cB895408f6DB1665382Fb96Be19,0x1F573D6Fb3F13d689FF844B4cE37794d79a7FF1C,0x6810e776880C02933D47DB1b9fc05908e5386b96,BNT,GNO,0.005,18,18,v2,1,Constant Product Pool,0xd7eB9DB184DA9f099B84e2F86b1da1Fe6b305B3d
135,BNT_GRT,GRT_BNT,bancor,bancor_v2,0x99A1d318aBbD732DDfB0221515F36F0D6ADF3753,0x1F573D6Fb3F13d689FF844B4cE37794d79a7FF1C,0xc944E90C64B2c07662A292be6244BDf05Cda44a7,BNT,GRT,0.002,18,18,v2,1,Constant Product Pool,0x7F6D555de5baa78946fF2985fdE2dd0535F0f9cB
136,BNT_ICHI,ICHI_BNT,bancor,bancor_v2,0x4a2F0Ca5E03B2cF81AebD936328CF2085037b63B,0x1F573D6Fb3F13d689FF844B4cE37794d79a7FF1C,0x903bEF1736CDdf2A537176cf3C64579C3867A881,BNT,ICHI,0.01,18,9,v2,1,Constant Product Pool,0x563f6e19197A8567778180F66474E30122FD702A
137,BNT_IDLE,IDLE_BNT,bancor,bancor_v2,0x3aEDE8eC6959D6FB1739785Da10178A25Cb8B377,0x1F573D6Fb3F13d689FF844B4cE37794d79a7FF1C,0x875773784Af8135eA0ef43b5a374AaD105c5D39e,BNT,IDLE,0.002,18,18,v2,1,Constant Product Pool,0x1092d8d818C09a55968180a4383049f91689C2b4
138,BNT_KTN,KTN_BNT,bancor,bancor_v2,0xcB127a2A085a194A5d8aDDFA308c8F30385f8EBd,0x1F573D6Fb3F13d689FF844B4cE37794d79a7FF1C,0x491E136FF7FF03E6aB097E54734697Bb5802FC1C,BNT,KTN,0.002,18,18,v2,1,Constant Product Pool,0xfb34B6253BF68C4D24885327D5605949904DfF05
139,BNT_LPL,LPL_BNT,bancor,bancor_v2,0x49BfE711fbd3185969AEaa8A0A8a54c63951fA7D,0x1F573D6Fb3F13d689FF844B4cE37794d79a7FF1C,0x99295f1141d58A99e939F7bE6BBe734916a875B8,BNT,LPL,0.05,18,18,v2,1,Constant Product Pool,0x6E93665AD9324364e87A61f055969E10C668Ac56
140,LRC_BNT,BNT_LRC,bancor,bancor_v2,0xDbA6fd466c31FA22538dA75BCD2991AcdBfD526f,0xBBbbCA6A901c926F240b89EacB641d8Aec7AEafD,0x1F573D6Fb3F13d689FF844B4cE37794d79a7FF1C,LRC,BNT,0.003,18,18,v2,1,Constant Product Pool,0xF5A203E16ab9B850b27f1F00C37352b6b7A28339
141,BNT_MANA,MANA_BNT,bancor,bancor_v2,0xbe4B63Cbb413b5d1f71f06bA2309b3dD95712a61,0x1F573D6Fb3F13d689FF844B4cE37794d79a7FF1C,0x0F5D2fB29fb7d3CFeE444a200298f468908cC942,BNT,MANA,0.002,18,18,v2,1,Constant Product Pool,0x79d83B390cF0EDF86B9EFbE47B556Cc6e20926aC
142,MATIC_BNT,BNT_MATIC,bancor,bancor_v2,0xe31643eBd9fd29B668c0553C76308a33dECFFA6d,0x7D1AfA7B718fb893dB30A3aBc0Cfc608AaCfeBB0,0x1F573D6Fb3F13d689FF844B4cE37794d79a7FF1C,MATIC,BNT,0.002,18,18,v2,1,Constant Product Pool,0x8151E0Fbbc10Af5b0F16B413dB0747169e9687d9
143,BNT_MFI,MFI_BNT,bancor,bancor_v2,0x81B5B6feC304349e1B6b852978E99F65077df6C3,0x1F573D6Fb3F13d689FF844B4cE37794d79a7FF1C,0xAa4e3edb11AFa93c41db59842b29de64b72E355B,BNT,MFI,0.002,18,18,v2,1,Constant Product Pool,0x7b09A6156b81a0143a5a003C7EA1324Cbc18C528
144,BNT_MKR,MKR_BNT,bancor,bancor_v2,0x99576816d7E55Bd7C00aB9b867835Ae496c3eFa9,0x1F573D6Fb3F13d689FF844B4cE37794d79a7FF1C,0x9f8F72aA9304c8B593d555F12eF6589cC3A579A2,BNT,MKR,0.01,18,18,v2,1,Constant Product Pool,0xf553E6eA4CE2F7dEEcbe7837E27931850eC15faB
145,BNT_MPH,MPH_BNT,bancor,bancor_v2,0xDF3FDFbcE72Da4FD42E7CFdE7249E15357c7D808,0x1F573D6Fb3F13d689FF844B4cE37794d79a7FF1C,0x8888801aF4d980682e47f1A9036e589479e835C5,BNT,MPH,0.002,18,18,v2,1,Constant Product Pool,0xAbf26410b1cfF45641aF087eE939E52e328ceE46
146,BNT_NDX,NDX_BNT,bancor,bancor_v2,0xbff308A38e160D1B9F25D2C0545a98A930942750,0x1F573D6Fb3F13d689FF844B4cE37794d79a7FF1C,0x86772b1409b61c639EaAc9Ba0AcfBb6E238e5F83,BNT,NDX,0.002,18,18,v2,1,Constant Product Pool,0xdc2e3142c5803e040FEb2d2E3c09c865FC5e3d0C
147,BNT_NMR,NMR_BNT,bancor,bancor_v2,0x96C56c18d78E2b0ACc2F8184e9D6dBf4d0488f1a,0x1F573D6Fb3F13d689FF844B4cE37794d79a7FF1C,0x1776e1F26f98b1A5dF9cD347953a26dd3Cb46671,BNT,NMR,0.005,18,18,v2,1,Constant Product Pool,0x9Cbb076C3dc14F025bE30b4Cc34c33107D602A44
148,BNT_NOIA,NOIA_BNT,bancor,bancor_v2,0x5e7247044F6A292D45a25a64279207496F31B9B5,0x1F573D6Fb3F13d689FF844B4cE37794d79a7FF1C,0xa8c8CfB141A3bB59FEA1E2ea6B79b5ECBCD7b6ca,BNT,NOIA,0.002,18,18,v2,1,Constant Product Pool,0x058e76592d50BB0De5083A30FB878C9715a96CA1
149,BNT_OPIUM,OPIUM_BNT,bancor,bancor_v2,0xceeb324ff0fF9F651f69391Cc07a94C2a8aEDF28,0x1F573D6Fb3F13d689FF844B4cE37794d79a7FF1C,0x888888888889C00c67689029D7856AAC1065eC11,BNT,OPIUM,0.002,18,18,v2,1,Constant Product Pool,0xd0cB485b5b64B288F94D9c6ABA2982f5d60f2954
150,BNT_PLR,PLR_BNT,bancor,bancor_v2,0xE49a4605f381f2e8da0DC08FE0e4141d68DD0C19,0x1F573D6Fb3F13d689FF844B4cE37794d79a7FF1C,0xe3818504c1B32bF1557b16C238B2E01Fd3149C17,BNT,PLR,0.001,18,18,v2,1,Constant Product Pool,0x2843F6c3b14e698e3D7562584959C61274F93328
151,BNT_POWR,POWR_BNT,bancor,bancor_v2,0x6b4c964c197d873643A06c26Cd4a82d8f298682D,0x1F573D6Fb3F13d689FF844B4cE37794d79a7FF1C,0x595832F8FC6BF59c85C527fEC3740A1b7a361269,BNT,POWR,0.001,18,6,v2,1,Constant Product Pool,0x168D7Bbf38E17941173a352f1352DF91a7771dF3
152,BNT_PSP,PSP_BNT,bancor,bancor_v2,0xe950137942F446a93C8309B3a7c1407ef1975856,0x1F573D6Fb3F13d689FF844B4cE37794d79a7FF1C,0xcAfE001067cDEF266AfB7Eb5A286dCFD277f3dE5,BNT,PSP,0.005,18,18,v2,1,Constant Product Pool,0xdD17F899D4Fa66249bfdba45F0c70817052559Ac
153,QNT_BNT,BNT_QNT,bancor,bancor_v2,0x11A9FE753fEe7f8Fd02eFef1a32e81217098D3D0,0x4a220E6096B25EADb88358cb44068A3248254675,0x1F573D6Fb3F13d689FF844B4cE37794d79a7FF1C,QNT,BNT,0.002,18,18,v2,1,Constant Product Pool,0xD6bF84B5D6F4d1288C39f2486688e949B1423E62
154,REN_BNT,BNT_REN,bancor,bancor_v2,0x3052B2d9694A0dC36735A14E4C313BE66f3c7E68,0x408e41876cCCDC0F92210600ef50372656052a38,0x1F573D6Fb3F13d689FF844B4cE37794d79a7FF1C,REN,BNT,0.002,18,18,v2,1,Constant Product Pool,0x6b181C478b315bE3f9E99c57CE926436c32e17a7
155,BNT_REQ,REQ_BNT,bancor,bancor_v2,0x483F65300b6Cb6f211aAB39229d494E59Fe24E66,0x1F573D6Fb3F13d689FF844B4cE37794d79a7FF1C,0x8f8221aFbB33998d8584A2B05749bA73c37a938a,BNT,REQ,0.01,18,18,v2,1,Constant Product Pool,0xccB5E3Ba5356D57001976092795626ac3b87Ad4e
156,BNT_RLC,RLC_BNT,bancor,bancor_v2,0xe9dB9908A2aA69753A5Ed89827B35A2B827D87ea,0x1F573D6Fb3F13d689FF844B4cE37794d79a7FF1C,0x607F4C5BB672230e8672085532f7e901544a7375,BNT,RLC,0.002,18,9,v2,1,Constant Product Pool,0x9003411Ac4073C2D9f37af71d00E373B72Cbe9E2
157,BNT_ROOK,ROOK_BNT,bancor,bancor_v2,0xFa7b9AD60304119f59B172Ef78B98D50cb9A5c98,0x1F573D6Fb3F13d689FF844B4cE37794d79a7FF1C,0xfA5047c9c78B8877af97BDcb85Db743fD7313d4a,BNT,ROOK,0.005,18,18,v2,1,Constant Product Pool,0x713017efCbdFA00a36ab42f5B9587BB1208571e1
158,BNT_RPL,RPL_BNT,bancor,bancor_v2,0x7cbB56Cba5F813012E02fE126515A40970c26a61,0x1F573D6Fb3F13d689FF844B4cE37794d79a7FF1C,0xD33526068D116cE69F19A9ee46F0bd304F21A51f,BNT,RPL,0.002,18,18,v2,1,Constant Product Pool,0x97F4B92D55B72ff08B45355a51DcB7ca0f3172C3
159,BNT_SFI,SFI_BNT,bancor,bancor_v2,0x05b70Ff7a53aF78dd6265183d2B70605E98DeC03,0x1F573D6Fb3F13d689FF844B4cE37794d79a7FF1C,0xb753428af26E81097e7fD17f40c88aaA3E04902c,BNT,SFI,0.002,18,18,v2,1,Constant Product Pool,0x0DF96DC40376EA6082Dd8c91aEaf4A70212153C7
160,BNT_SHEESHA,SHEESHA_BNT,bancor,bancor_v2,0xB521525b2E6Ad8Ef4c03E747B4541F366E5b8035,0x1F573D6Fb3F13d689FF844B4cE37794d79a7FF1C,0x232FB065D9d24c34708eeDbF03724f2e95ABE768,BNT,SHEESHA,0.002,18,18,v2,1,Constant Product Pool,0x2a1b07Adf22FfBed2B965Be3DDc550735e6a1e57
161,SNX_BNT,BNT_SNX,bancor,bancor_v2,0xb0536a57a8D8f5327C62d0fECbA23C5a27b5118b,0xC011a73ee8576Fb46F5E1c5751cA3B9Fe0af2a6F,0x1F573D6Fb3F13d689FF844B4cE37794d79a7FF1C,SNX,BNT,0.01,18,18,v2,1,Constant Product Pool,0xAdAA88CA9913f2d6F8Caa0616Ff01eE8D4223fde
162,BNT_TEMP,TEMP_BNT,bancor,bancor_v2,0xcd0600E58e5d11043687E9163029Ad7Bb8D996B7,0x1F573D6Fb3F13d689FF844B4cE37794d79a7FF1C,0xA36FDBBAE3c9d55a1d67EE5821d53B50B63A1aB9,BNT,TEMP,0.002,18,18,v2,1,Constant Product Pool,0x665828569D28E2971eB3a7D955bEC09BBeF88566
163,BNT_TRAC,TRAC_BNT,bancor,bancor_v2,0x987Caf390Fc5100dA6db7e8Ec4b651Cd3b61bc32,0x1F573D6Fb3F13d689FF844B4cE37794d79a7FF1C,0xaA7a9CA87d3694B5755f213B5D04094b8d0F0A6F,BNT,TRAC,0.02,18,18,v2,1,Constant Product Pool,0x0D0959E2F6BE7bA6a0B5ec6c98C1dceBC2845012
164,USDC_BNT,BNT_USDC,bancor,bancor_v2,0x23d1b2755d6C243DFa9Dd06624f1686b9c9E13EB,0xA0b86991c6218b36c1d19D4a2e9Eb0cE3606eB48,0x1F573D6Fb3F13d689FF844B4cE37794d79a7FF1C,USDC,BNT,0.01,6,18,v2,1,Constant Product Pool,0x874d8dE5b26c9D9f6aA8d7bab283F9A9c6f777f4
165,BNT_VBNT,VBNT_BNT,bancor,bancor_v2,0x8d06AFd8E322d39Ebaba6DD98f17a0ae81C875b8,0x1F573D6Fb3F13d689FF844B4cE37794d79a7FF1C,0x48Fb253446873234F2fEBbF9BdeAA72d9d387f94,BNT,VBNT,0.015,18,18,v2,1,Constant Product Pool,0x3D9E2dA44Af9386484d0D35C29eB62122e4F4742
166,BNT_VITA,VITA_BNT,bancor,bancor_v2,0x7B96138d36895e5e68d93561D24465e66E827206,0x1F573D6Fb3F13d689FF844B4cE37794d79a7FF1C,0x81f8f0bb1cB2A06649E51913A151F0E7Ef6FA321,BNT,VITA,0.002,18,18,v2,1,Constant Product Pool,0xe8dF08526cbdfB8187f3656F8FAB90Ed015830BF
167,BNT_VLX,VLX_BNT,bancor,bancor_v2,0xe345e2F93C28eC6AC2fef45Eb1A9FC715601355A,0x1F573D6Fb3F13d689FF844B4cE37794d79a7FF1C,0x8C543AED163909142695f2d2aCd0D55791a9Edb9,BNT,VLX,0.002,18,18,v2,1,Constant Product Pool,0x57655d5FD4d1c23006f710743250F153778Fd7bd
168,BNT_WBTC,WBTC_BNT,bancor,bancor_v2,0xCBA47689202d31575bfa204efE70e2C83d29dA4D,0x1F573D6Fb3F13d689FF844B4cE37794d79a7FF1C,0x2260FAC5E5542a773Aa44fBCfeDf7C193bc2C599,BNT,WBTC,0.002,18,8,v2,1,Constant Product Pool,0xFEE7EeaA0c2f3F7C7e6301751a8dE55cE4D059Ec
169,WNXM_BNT,BNT_WNXM,bancor,bancor_v2,0x5A29f970788F3494f6350207fc91DaD0d6e8C184,0x0d438F3b5175Bebc262bF23753C1E53d03432bDE,0x1F573D6Fb3F13d689FF844B4cE37794d79a7FF1C,WNXM,BNT,0.01,18,18,v2,1,Constant Product Pool,0x75aB5e15129BBBEcB5C5Fdb71d1ff7D5dA97d56c
170,BNT_WOO,WOO_BNT,bancor,bancor_v2,0xc51bDa643AFBCf2D5c97678a1AbB825f48BF53d8,0x1F573D6Fb3F13d689FF844B4cE37794d79a7FF1C,0x4691937a7508860F876c9c0a2a617E7d9E945D4B,BNT,WOO,0.002,18,18,v2,1,Constant Product Pool,0x30c6fE4D0526C5c6707d7E2EBbD4fFbBdce1728C
171,BNT_WXT,WXT_BNT,bancor,bancor_v2,0x4F1b9f5eaa5D6B6Db0580170FCe6325DBE832BbF,0x1F573D6Fb3F13d689FF844B4cE37794d79a7FF1C,0xa02120696c7B8fE16C09C749E4598819b2B0E915,BNT,WXT,0.002,18,18,v2,1,Constant Product Pool,0x4B5D4DdbfB85664326f4717C2e2eC2fC17B3E302
172,YFI_BNT,BNT_YFI,bancor,bancor_v2,0x555981B82743aa443cB1c3002c85Ba9d795D4596,0x0bc529c00C6401aEF6D220BE8C6Ea1667F6Ad93e,0x1F573D6Fb3F13d689FF844B4cE37794d79a7FF1C,YFI,BNT,0.002,18,18,v2,1,Constant Product Pool,0xAeB3a1AeD77b5D6e3feBA0055d79176532e5cEb8
173,BNT_ZCN,ZCN_BNT,bancor,bancor_v2,0x22615044bb10521828845A06ec2176800A3c4B5E,0x1F573D6Fb3F13d689FF844B4cE37794d79a7FF1C,0xb9EF770B6A5e12E45983C5D80545258aA38F3B78,BNT,ZCN,0.005,18,10,v2,1,Constant Product Pool,0x43bE7B715c6B39eADd18CF14ce493878321673bC
174,OCEAN_BNT,BNT_OCEAN,bancor,bancor_v2,0x5a7BB6aDF00A1d6284773887fCAdce079c636567,0x967da4048cD07aB37855c090aAF366e4ce1b9F48,0x1F573D6Fb3F13d689FF844B4cE37794d79a7FF1C,OCEAN,BNT,0.005,18,18,v2,1,Constant Product Pool,0xCDfF066eDf8a770E9b6A7aE12F7CFD3DbA0011B5
175,BNT_USDT,USDT_BNT,bancor,bancor_v2,0x79D89b87468a59B9895b31E3a373DC5973d60065,0x1F573D6Fb3F13d689FF844B4cE37794d79a7FF1C,0xdAC17F958D2ee523a2206206994597C13D831ec7,BNT,USDT,0.01,18,6,v2,1,Constant Product Pool,0x5365B5BC56493F08A38E5Eb08E36cBbe6fcC8306
0,BNT_WETH,WETH_BNT,bancor,bancor_v3,0x8E303D296851B320e6a697bAcB979d13c9D6E760,0x1F573D6Fb3F13d689FF844B4cE37794d79a7FF1C,0xC02aaA39b223FE8D0A0e5C4F27eAD9083C756Cc2,BNT,WETH,0.0,18,18,v3,2,Constant Product Pool,
6,BNT_USDT,USDT_BNT,bancor,bancor_v3,0x8E303D296851B320e6a697bAcB979d13c9D6E760,0x1F573D6Fb3F13d689FF844B4cE37794d79a7FF1C,0xdAC17F958D2ee523a2206206994597C13D831ec7,BNT,USDT,0.0,18,6,v3,2,Constant Product Pool,
14,BNT_ENJ,ENJ_BNT,bancor,bancor_v3,0x8E303D296851B320e6a697bAcB979d13c9D6E760,0x1F573D6Fb3F13d689FF844B4cE37794d79a7FF1C,0xF629cBd94d3791C9250152BD8dfBDF380E2a3B9c,BNT,ENJ,0.0,18,18,v3,2,Constant Product Pool,
46,BNT_ENS,ENS_BNT,bancor,bancor_v3,0x8E303D296851B320e6a697bAcB979d13c9D6E760,0x1F573D6Fb3F13d689FF844B4cE37794d79a7FF1C,0xC18360217D8F7Ab5e7c516566761Ea12Ce7F9D72,BNT,ENS,0.0,18,18,v3,2,Constant Product Pool,
64,BNT_UOS,UOS_BNT,bancor,bancor_v3,0x8E303D296851B320e6a697bAcB979d13c9D6E760,0x1F573D6Fb3F13d689FF844B4cE37794d79a7FF1C,0xD13c7342e1ef687C5ad21b27c2b65D772cAb5C8c,BNT,UOS,0.0,18,4,v3,2,Constant Product Pool,
68,BNT_RARI,RARI_BNT,bancor,bancor_v3,0x8E303D296851B320e6a697bAcB979d13c9D6E760,0x1F573D6Fb3F13d689FF844B4cE37794d79a7FF1C,0xFca59Cd816aB1eaD66534D82bc21E7515cE441CF,BNT,RARI,0.0,18,18,v3,2,Constant Product Pool,
70,BNT_AMP,AMP_BNT,bancor,bancor_v3,0x8E303D296851B320e6a697bAcB979d13c9D6E760,0x1F573D6Fb3F13d689FF844B4cE37794d79a7FF1C,0xfF20817765cB7f73d4bde2e66e067E58D11095C2,BNT,AMP,0.0,18,18,v3,2,Constant Product Pool,
86,BNT_DIP,DIP_BNT,bancor,bancor_v3,0x8E303D296851B320e6a697bAcB979d13c9D6E760,0x1F573D6Fb3F13d689FF844B4cE37794d79a7FF1C,0xc719d010B63E5bbF2C0551872CD5316ED26AcD83,BNT,DIP,0.0,18,18,v3,2,Constant Product Pool,
88,BNT_GRT,GRT_BNT,bancor,bancor_v3,0x8E303D296851B320e6a697bAcB979d13c9D6E760,0x1F573D6Fb3F13d689FF844B4cE37794d79a7FF1C,0xc944E90C64B2c07662A292be6244BDf05Cda44a7,BNT,GRT,0.0,18,18,v3,2,Constant Product Pool,
98,BNT_USDC,USDC_BNT,bancor,bancor_v3,0x8E303D296851B320e6a697bAcB979d13c9D6E760,0x1F573D6Fb3F13d689FF844B4cE37794d79a7FF1C,0xA0b86991c6218b36c1d19D4a2e9Eb0cE3606eB48,BNT,USDC,0.0,18,6,v3,2,Constant Product Pool,
110,BNT_ETH,ETH_BNT,bancor,bancor_v3,0x8E303D296851B320e6a697bAcB979d13c9D6E760,0x1F573D6Fb3F13d689FF844B4cE37794d79a7FF1C,0xEeeeeEeeeEeEeeEeEeEeeEEEeeeeEeeeeeeeEEeE,BNT,ETH,0.0,18,18,v3,2,Constant Product Pool,
111,BNT_DAI,DAI_BNT,bancor,bancor_v3,0x8E303D296851B320e6a697bAcB979d13c9D6E760,0x1F573D6Fb3F13d689FF844B4cE37794d79a7FF1C,0x6B175474E89094C44Da98b954EedeAC495271d0F,BNT,DAI,0.0,18,18,v3,2,Constant Product Pool,
112,BNT_BNT,BNT_BNT,bancor,bancor_v3,0x8E303D296851B320e6a697bAcB979d13c9D6E760,0x1F573D6Fb3F13d689FF844B4cE37794d79a7FF1C,0x1F573D6Fb3F13d689FF844B4cE37794d79a7FF1C,BNT,BNT,0.0,18,18,v3,2,Constant Product Pool,
118,BNT_BAT,BAT_BNT,bancor,bancor_v3,0x8E303D296851B320e6a697bAcB979d13c9D6E760,0x1F573D6Fb3F13d689FF844B4cE37794d79a7FF1C,0x0D8775F648430679A709E98d2b0Cb6250d2887EF,BNT,BAT,0.0,18,18,v3,2,Constant Product Pool,
120,BNT_BBS,BBS_BNT,bancor,bancor_v3,0x8E303D296851B320e6a697bAcB979d13c9D6E760,0x1F573D6Fb3F13d689FF844B4cE37794d79a7FF1C,0xFe459828c90c0BA4bC8b42F5C5D44F316700B430,BNT,BBS,0.0,18,18,v3,2,Constant Product Pool,
121,BNT_BORING,BORING_BNT,bancor,bancor_v3,0x8E303D296851B320e6a697bAcB979d13c9D6E760,0x1F573D6Fb3F13d689FF844B4cE37794d79a7FF1C,0xBC19712FEB3a26080eBf6f2F7849b417FdD792CA,BNT,BORING,0.0,18,18,v3,2,Constant Product Pool,
123,BNT_DAPP,DAPP_BNT,bancor,bancor_v3,0x8E303D296851B320e6a697bAcB979d13c9D6E760,0x1F573D6Fb3F13d689FF844B4cE37794d79a7FF1C,0x939B462ee3311f8926c047D2B576C389092b1649,BNT,DAPP,0.0,18,4,v3,2,Constant Product Pool,
128,BNT_EDEN,EDEN_BNT,bancor,bancor_v3,0x8E303D296851B320e6a697bAcB979d13c9D6E760,0x1F573D6Fb3F13d689FF844B4cE37794d79a7FF1C,0x1559FA1b8F28238FD5D76D9f434ad86FD20D1559,BNT,EDEN,0.0,18,18,v3,2,Constant Product Pool,
136,BNT_ICHI,ICHI_BNT,bancor,bancor_v3,0x8E303D296851B320e6a697bAcB979d13c9D6E760,0x1F573D6Fb3F13d689FF844B4cE37794d79a7FF1C,0x903bEF1736CDdf2A537176cf3C64579C3867A881,BNT,ICHI,0.0,18,9,v3,2,Constant Product Pool,
139,BNT_LPL,LPL_BNT,bancor,bancor_v3,0x8E303D296851B320e6a697bAcB979d13c9D6E760,0x1F573D6Fb3F13d689FF844B4cE37794d79a7FF1C,0x99295f1141d58A99e939F7bE6BBe734916a875B8,BNT,LPL,0.0,18,18,v3,2,Constant Product Pool,
141,BNT_MANA,MANA_BNT,bancor,bancor_v3,0x8E303D296851B320e6a697bAcB979d13c9D6E760,0x1F573D6Fb3F13d689FF844B4cE37794d79a7FF1C,0x0F5D2fB29fb7d3CFeE444a200298f468908cC942,BNT,MANA,0.0,18,18,v3,2,Constant Product Pool,
144,BNT_MKR,MKR_BNT,bancor,bancor_v3,0x8E303D296851B320e6a697bAcB979d13c9D6E760,0x1F573D6Fb3F13d689FF844B4cE37794d79a7FF1C,0x9f8F72aA9304c8B593d555F12eF6589cC3A579A2,BNT,MKR,0.0,18,18,v3,2,Constant Product Pool,
147,BNT_NMR,NMR_BNT,bancor,bancor_v3,0x8E303D296851B320e6a697bAcB979d13c9D6E760,0x1F573D6Fb3F13d689FF844B4cE37794d79a7FF1C,0x1776e1F26f98b1A5dF9cD347953a26dd3Cb46671,BNT,NMR,0.0,18,18,v3,2,Constant Product Pool,
156,BNT_RLC,RLC_BNT,bancor,bancor_v3,0x8E303D296851B320e6a697bAcB979d13c9D6E760,0x1F573D6Fb3F13d689FF844B4cE37794d79a7FF1C,0x607F4C5BB672230e8672085532f7e901544a7375,BNT,RLC,0.0,18,9,v3,2,Constant Product Pool,
158,BNT_RPL,RPL_BNT,bancor,bancor_v3,0x8E303D296851B320e6a697bAcB979d13c9D6E760,0x1F573D6Fb3F13d689FF844B4cE37794d79a7FF1C,0xD33526068D116cE69F19A9ee46F0bd304F21A51f,BNT,RPL,0.0,18,18,v3,2,Constant Product Pool,
160,BNT_SHEESHA,SHEESHA_BNT,bancor,bancor_v3,0x8E303D296851B320e6a697bAcB979d13c9D6E760,0x1F573D6Fb3F13d689FF844B4cE37794d79a7FF1C,0x232FB065D9d24c34708eeDbF03724f2e95ABE768,BNT,SHEESHA,0.0,18,18,v3,2,Constant Product Pool,
162,BNT_TEMP,TEMP_BNT,bancor,bancor_v3,0x8E303D296851B320e6a697bAcB979d13c9D6E760,0x1F573D6Fb3F13d689FF844B4cE37794d79a7FF1C,0xA36FDBBAE3c9d55a1d67EE5821d53B50B63A1aB9,BNT,TEMP,0.0,18,18,v3,2,Constant Product Pool,
163,BNT_TRAC,TRAC_BNT,bancor,bancor_v3,0x8E303D296851B320e6a697bAcB979d13c9D6E760,0x1F573D6Fb3F13d689FF844B4cE37794d79a7FF1C,0xaA7a9CA87d3694B5755f213B5D04094b8d0F0A6F,BNT,TRAC,0.0,18,18,v3,2,Constant Product Pool,
165,BNT_VBNT,VBNT_BNT,bancor,bancor_v3,0x8E303D296851B320e6a697bAcB979d13c9D6E760,0x1F573D6Fb3F13d689FF844B4cE37794d79a7FF1C,0x48Fb253446873234F2fEBbF9BdeAA72d9d387f94,BNT,VBNT,0.0,18,18,v3,2,Constant Product Pool,
168,BNT_WBTC,WBTC_BNT,bancor,bancor_v3,0x8E303D296851B320e6a697bAcB979d13c9D6E760,0x1F573D6Fb3F13d689FF844B4cE37794d79a7FF1C,0x2260FAC5E5542a773Aa44fBCfeDf7C193bc2C599,BNT,WBTC,0.0,18,8,v3,2,Constant Product Pool,
170,BNT_WOO,WOO_BNT,bancor,bancor_v3,0x8E303D296851B320e6a697bAcB979d13c9D6E760,0x1F573D6Fb3F13d689FF844B4cE37794d79a7FF1C,0x4691937a7508860F876c9c0a2a617E7d9E945D4B,BNT,WOO,0.0,18,18,v3,2,Constant Product Pool,
173,BNT_ZCN,ZCN_BNT,bancor,bancor_v3,0x8E303D296851B320e6a697bAcB979d13c9D6E760,0x1F573D6Fb3F13d689FF844B4cE37794d79a7FF1C,0xb9EF770B6A5e12E45983C5D80545258aA38F3B78,BNT,ZCN,0.0,18,10,v3,2,Constant Product Pool,
0,LINK_WETH,WETH_LINK,uniswap,uniswap_v2,0xa2107FA5B38d9bbd2C461D6EDf11B11A50F6b974,0x514910771AF9Ca656af840dff83E8264EcF986CA,0xC02aaA39b223FE8D0A0e5C4F27eAD9083C756Cc2,LINK,WETH,0.003,18,18,v2,3,Constant Product Pool,
2,DAI_WETH,WETH_DAI,uniswap,uniswap_v2,0xA478c2975Ab1Ea89e8196811F51A7B7Ade33eB11,0x6B175474E89094C44Da98b954EedeAC495271d0F,0xC02aaA39b223FE8D0A0e5C4F27eAD9083C756Cc2,DAI,WETH,0.003,18,18,v2,3,Constant Product Pool,
4,WBTC_WETH,WETH_WBTC,uniswap,uniswap_v2,0xBb2b8038a1640196FbE3e38816F3e67Cba72D940,0x2260FAC5E5542a773Aa44fBCfeDf7C193bc2C599,0xC02aaA39b223FE8D0A0e5C4F27eAD9083C756Cc2,WBTC,WETH,0.003,8,18,v2,3,Constant Product Pool,
6,WETH_USDT,USDT_WETH,uniswap,uniswap_v2,0x0d4a11d5EEaaC28EC3F61d100daF4d40471f1852,0xC02aaA39b223FE8D0A0e5C4F27eAD9083C756Cc2,0xdAC17F958D2ee523a2206206994597C13D831ec7,WETH,USDT,0.003,18,6,v2,3,Constant Product Pool,
8,USDC_WETH,WETH_USDC,uniswap,uniswap_v2,0xB4e16d0168e52d35CaCD2c6185b44281Ec28C9Dc,0xA0b86991c6218b36c1d19D4a2e9Eb0cE3606eB48,0xC02aaA39b223FE8D0A0e5C4F27eAD9083C756Cc2,USDC,WETH,0.003,6,18,v2,3,Constant Product Pool,
10,VBNT_WETH,WETH_VBNT,uniswap,uniswap_v2,0x68552173d677569177f4816822Bd6274791a0192,0x48Fb253446873234F2fEBbF9BdeAA72d9d387f94,0xC02aaA39b223FE8D0A0e5C4F27eAD9083C756Cc2,VBNT,WETH,0.003,18,18,v2,3,Constant Product Pool,
12,WOO_WETH,WETH_WOO,uniswap,uniswap_v2,0x6AdA49AECCF6E556Bb7a35ef0119Cc8ca795294A,0x4691937a7508860F876c9c0a2a617E7d9E945D4B,0xC02aaA39b223FE8D0A0e5C4F27eAD9083C756Cc2,WOO,WETH,0.003,18,18,v2,3,Constant Product Pool,
14,WETH_ENJ,ENJ_WETH,uniswap,uniswap_v2,0xE56c60B5f9f7B5FC70DE0eb79c6EE7d00eFa2625,0xC02aaA39b223FE8D0A0e5C4F27eAD9083C756Cc2,0xF629cBd94d3791C9250152BD8dfBDF380E2a3B9c,WETH,ENJ,0.003,18,18,v2,3,Constant Product Pool,
16,HOT_WETH,WETH_HOT,uniswap,uniswap_v2,0xf5ef67632cd2256d939702a126FE2c047d0a07bf,0x6c6EE5e31d828De241282B9606C8e98Ea48526E2,0xC02aaA39b223FE8D0A0e5C4F27eAD9083C756Cc2,HOT,WETH,0.003,18,18,v2,3,Constant Product Pool,
18,REN_WETH,WETH_REN,uniswap,uniswap_v2,0x8Bd1661Da98EBDd3BD080F0bE4e6d9bE8cE9858c,0x408e41876cCCDC0F92210600ef50372656052a38,0xC02aaA39b223FE8D0A0e5C4F27eAD9083C756Cc2,REN,WETH,0.003,18,18,v2,3,Constant Product Pool,
20,BAT_WETH,WETH_BAT,uniswap,uniswap_v2,0xB6909B960DbbE7392D405429eB2b3649752b4838,0x0D8775F648430679A709E98d2b0Cb6250d2887EF,0xC02aaA39b223FE8D0A0e5C4F27eAD9083C756Cc2,BAT,WETH,0.003,18,18,v2,3,Constant Product Pool,
22,MFG_WETH,WETH_MFG,uniswap,uniswap_v2,0x527d5f10d70cA41e1e0EEE8d30b553bB5271ee48,0x6710c63432A2De02954fc0f851db07146a6c0312,0xC02aaA39b223FE8D0A0e5C4F27eAD9083C756Cc2,MFG,WETH,0.003,18,18,v2,3,Constant Product Pool,
24,MATIC_WETH,WETH_MATIC,uniswap,uniswap_v2,0x819f3450dA6f110BA6Ea52195B3beaFa246062dE,0x7D1AfA7B718fb893dB30A3aBc0Cfc608AaCfeBB0,0xC02aaA39b223FE8D0A0e5C4F27eAD9083C756Cc2,MATIC,WETH,0.003,18,18,v2,3,Constant Product Pool,
26,BORING_WETH,WETH_BORING,uniswap,uniswap_v2,0x8d9F34af8d66AB7a84cE1241426510DFECEa868F,0xBC19712FEB3a26080eBf6f2F7849b417FdD792CA,0xC02aaA39b223FE8D0A0e5C4F27eAD9083C756Cc2,BORING,WETH,0.003,18,18,v2,3,Constant Product Pool,
28,QNT_WETH,WETH_QNT,uniswap,uniswap_v2,0x0C4a68Cf6857cc76FE946d04Fe85faC5faE9625E,0x4a220E6096B25EADb88358cb44068A3248254675,0xC02aaA39b223FE8D0A0e5C4F27eAD9083C756Cc2,QNT,WETH,0.003,18,18,v2,3,Constant Product Pool,
30,MANA_WETH,WETH_MANA,uniswap,uniswap_v2,0x11b1f53204d03E5529F09EB3091939e4Fd8c9CF3,0x0F5D2fB29fb7d3CFeE444a200298f468908cC942,0xC02aaA39b223FE8D0A0e5C4F27eAD9083C756Cc2,MANA,WETH,0.003,18,18,v2,3,Constant Product Pool,
32,MKR_WETH,WETH_MKR,uniswap,uniswap_v2,0xC2aDdA861F89bBB333c90c492cB837741916A225,0x9f8F72aA9304c8B593d555F12eF6589cC3A579A2,0xC02aaA39b223FE8D0A0e5C4F27eAD9083C756Cc2,MKR,WETH,0.003,18,18,v2,3,Constant Product Pool,
34,AAVE_WETH,WETH_AAVE,uniswap,uniswap_v2,0xDFC14d2Af169B0D36C4EFF567Ada9b2E0CAE044f,0x7Fc66500c84A76Ad7e9c93437bFc5Ac33E2DDaE9,0xC02aaA39b223FE8D0A0e5C4F27eAD9083C756Cc2,AAVE,WETH,0.003,18,18,v2,3,Constant Product Pool,
36,MONA_WETH,WETH_MONA,uniswap,uniswap_v2,0xe6936df3D937CFc2CcF5B84ddbFD5455b468bBb9,0x275f5Ad03be0Fa221B4C6649B8AeE09a42D9412A,0xC02aaA39b223FE8D0A0e5C4F27eAD9083C756Cc2,MONA,WETH,0.003,18,18,v2,3,Constant Product Pool,
38,SNX_WETH,WETH_SNX,uniswap,uniswap_v2,0x43AE24960e5534731Fc831386c07755A2dc33D47,0xC011a73ee8576Fb46F5E1c5751cA3B9Fe0af2a6F,0xC02aaA39b223FE8D0A0e5C4F27eAD9083C756Cc2,SNX,WETH,0.003,18,18,v2,3,Constant Product Pool,
40,WNXM_WETH,WETH_WNXM,uniswap,uniswap_v2,0x23bFf8ca20AAc06EFDf23cEe3B8ae296A30Dfd27,0x0d438F3b5175Bebc262bF23753C1E53d03432bDE,0xC02aaA39b223FE8D0A0e5C4F27eAD9083C756Cc2,WNXM,WETH,0.003,18,18,v2,3,Constant Product Pool,
42,LPL_WETH,WETH_LPL,uniswap,uniswap_v2,0x966ea83CF3170a309184bB742398C925249E407e,0x99295f1141d58A99e939F7bE6BBe734916a875B8,0xC02aaA39b223FE8D0A0e5C4F27eAD9083C756Cc2,LPL,WETH,0.003,18,18,v2,3,Constant Product Pool,
44,DAO_WETH,WETH_DAO,uniswap,uniswap_v2,0x7DD3F5705504002dc946AEAfE6629b9481b72272,0x0f51bb10119727a7e5eA3538074fb341F56B09Ad,0xC02aaA39b223FE8D0A0e5C4F27eAD9083C756Cc2,DAO,WETH,0.003,18,18,v2,3,Constant Product Pool,
46,WETH_ENS,ENS_WETH,uniswap,uniswap_v2,0xB87b65Dacc6171B3ca8c4A934601d0FcB6c61049,0xC02aaA39b223FE8D0A0e5C4F27eAD9083C756Cc2,0xC18360217D8F7Ab5e7c516566761Ea12Ce7F9D72,WETH,ENS,0.003,18,18,v2,3,Constant Product Pool,
48,UNI_WETH,WETH_UNI,uniswap,uniswap_v2,0xd3d2E2692501A5c9Ca623199D38826e513033a17,0x1f9840a85d5aF5bf1D1762F925BDADdC4201F984,0xC02aaA39b223FE8D0A0e5C4F27eAD9083C756Cc2,UNI,WETH,0.003,18,18,v2,3,Constant Product Pool,
50,ZCN_WETH,WETH_ZCN,uniswap,uniswap_v2,0xa6890aC41e3a99A427bef68398Bf06119fB5e211,0xb9EF770B6A5e12E45983C5D80545258aA38F3B78,0xC02aaA39b223FE8D0A0e5C4F27eAD9083C756Cc2,ZCN,WETH,0.003,10,18,v2,3,Constant Product Pool,
52,OCEAN_WETH,WETH_OCEAN,uniswap,uniswap_v2,0x9b7DaD79FC16106b47a3DAb791F389C167e15Eb0,0x967da4048cD07aB37855c090aAF366e4ce1b9F48,0xC02aaA39b223FE8D0A0e5C4F27eAD9083C756Cc2,OCEAN,WETH,0.003,18,18,v2,3,Constant Product Pool,
54,TRAC_WETH,WETH_TRAC,uniswap,uniswap_v2,0x1A58Aa618DF8F1eC282748feF6185C1a1cC2FAa6,0xaA7a9CA87d3694B5755f213B5D04094b8d0F0A6F,0xC02aaA39b223FE8D0A0e5C4F27eAD9083C756Cc2,TRAC,WETH,0.003,18,18,v2,3,Constant Product Pool,
56,WETH_GTC,GTC_WETH,uniswap,uniswap_v2,0xa3509A16BbfC5992eb01Cc861B615cCd8e937da8,0xC02aaA39b223FE8D0A0e5C4F27eAD9083C756Cc2,0xDe30da39c46104798bB5aA3fe8B9e0e1F348163F,WETH,GTC,0.003,18,18,v2,3,Constant Product Pool,
58,INST_WETH,WETH_INST,uniswap,uniswap_v2,0x6e04A3Deb92463241983121FE278f7492aAAD697,0x6f40d4A6237C257fff2dB00FA0510DeEECd303eb,0xC02aaA39b223FE8D0A0e5C4F27eAD9083C756Cc2,INST,WETH,0.003,18,18,v2,3,Constant Product Pool,
60,ARCONA_WETH,WETH_ARCONA,uniswap,uniswap_v2,0x1A1FE6F955B6567a75dddEc526320a4A1A214fA9,0x0f71B8De197A1C84d31de0F1fA7926c365F052B3,0xC02aaA39b223FE8D0A0e5C4F27eAD9083C756Cc2,ARCONA,WETH,0.003,18,18,v2,3,Constant Product Pool,
62,CHZ_WETH,WETH_CHZ,uniswap,uniswap_v2,0xff58711683Be66daD6e0e20E0043AF46FC7f5F49,0x3506424F91fD33084466F402d5D97f05F8e3b4AF,0xC02aaA39b223FE8D0A0e5C4F27eAD9083C756Cc2,CHZ,WETH,0.003,18,18,v2,3,Constant Product Pool,
64,WETH_UOS,UOS_WETH,uniswap,uniswap_v2,0x42D52847BE255eacEE8c3f96b3B223c0B3cC0438,0xC02aaA39b223FE8D0A0e5C4F27eAD9083C756Cc2,0xD13c7342e1ef687C5ad21b27c2b65D772cAb5C8c,WETH,UOS,0.003,18,4,v2,3,Constant Product Pool,
66,INDEX_WETH,WETH_INDEX,uniswap,uniswap_v2,0x3452A7f30A712e415a0674C0341d44eE9D9786F9,0x0954906da0Bf32d5479e25f46056d22f08464cab,0xC02aaA39b223FE8D0A0e5C4F27eAD9083C756Cc2,INDEX,WETH,0.003,18,18,v2,3,Constant Product Pool,
68,WETH_RARI,RARI_WETH,uniswap,uniswap_v2,0x86fEf14C27C78dEAEb4349FD959CAA11fc5B5D75,0xC02aaA39b223FE8D0A0e5C4F27eAD9083C756Cc2,0xFca59Cd816aB1eaD66534D82bc21E7515cE441CF,WETH,RARI,0.003,18,18,v2,3,Constant Product Pool,
70,WETH_AMP,AMP_WETH,uniswap,uniswap_v2,0x08650bb9dc722C9c8C62E79C2BAfA2d3fc5B3293,0xC02aaA39b223FE8D0A0e5C4F27eAD9083C756Cc2,0xfF20817765cB7f73d4bde2e66e067E58D11095C2,WETH,AMP,0.003,18,18,v2,3,Constant Product Pool,
72,RLC_WETH,WETH_RLC,uniswap,uniswap_v2,0x6d57a53A45343187905aaD6AD8eD532D105697c1,0x607F4C5BB672230e8672085532f7e901544a7375,0xC02aaA39b223FE8D0A0e5C4F27eAD9083C756Cc2,RLC,WETH,0.003,9,18,v2,3,Constant Product Pool,
74,RNB_WETH,WETH_RNB,uniswap,uniswap_v2,0x08ad72b16D56a5A9f2189aFb972dbdFE72920CAc,0x2A039B1D9bBDccBb91be28691b730ca893e5e743,0xC02aaA39b223FE8D0A0e5C4F27eAD9083C756Cc2,RNB,WETH,0.003,18,18,v2,3,Constant Product Pool,
76,ANKR_WETH,WETH_ANKR,uniswap,uniswap_v2,0x5201883feeb05822CE25c9Af8Ab41Fc78Ca73fA9,0x8290333ceF9e6D528dD5618Fb97a76f268f3EDD4,0xC02aaA39b223FE8D0A0e5C4F27eAD9083C756Cc2,ANKR,WETH,0.003,18,18,v2,3,Constant Product Pool,
78,SHIBGF_WETH,WETH_SHIBGF,uniswap,uniswap_v2,0x39dE6c18D82Ab9dD1ed4b9E0B4D1BC971DDD6C9D,0x505a84a03e382331A1Be487b632Cf357748b65d6,0xC02aaA39b223FE8D0A0e5C4F27eAD9083C756Cc2,SHIBGF,WETH,0.003,18,18,v2,3,Constant Product Pool,
80,LRC_WETH,WETH_LRC,uniswap,uniswap_v2,0x8878Df9E1A7c87dcBf6d3999D997f262C05D8C70,0xBBbbCA6A901c926F240b89EacB641d8Aec7AEafD,0xC02aaA39b223FE8D0A0e5C4F27eAD9083C756Cc2,LRC,WETH,0.003,18,18,v2,3,Constant Product Pool,
82,SATA_WETH,WETH_SATA,uniswap,uniswap_v2,0xBc00e708C407d7633f7504434e74C13e171De7F1,0x3ebb4A4e91Ad83BE51F8d596533818b246F4bEe1,0xC02aaA39b223FE8D0A0e5C4F27eAD9083C756Cc2,SATA,WETH,0.003,18,18,v2,3,Constant Product Pool,
84,XSUSHI_WETH,WETH_XSUSHI,uniswap,uniswap_v2,0x8dd279FF704Fd14858871b57b89E118062548c94,0x8798249c2E607446EfB7Ad49eC89dD1865Ff4272,0xC02aaA39b223FE8D0A0e5C4F27eAD9083C756Cc2,XSUSHI,WETH,0.003,18,18,v2,3,Constant Product Pool,
86,WETH_DIP,DIP_WETH,uniswap,uniswap_v2,0xDE68AD8502874A7d5Dd1758F7B0A7831F142b78A,0xC02aaA39b223FE8D0A0e5C4F27eAD9083C756Cc2,0xc719d010B63E5bbF2C0551872CD5316ED26AcD83,WETH,DIP,0.003,18,18,v2,3,Constant Product Pool,
88,WETH_GRT,GRT_WETH,uniswap,uniswap_v2,0x2e81eC0B8B4022fAC83A21B2F2B4B8f5ED744D70,0xC02aaA39b223FE8D0A0e5C4F27eAD9083C756Cc2,0xc944E90C64B2c07662A292be6244BDf05Cda44a7,WETH,GRT,0.003,18,18,v2,3,Constant Product Pool,
90,YFI_WETH,WETH_YFI,uniswap,uniswap_v2,0x2fDbAdf3C4D5A8666Bc06645B8358ab803996E28,0x0bc529c00C6401aEF6D220BE8C6Ea1667F6Ad93e,0xC02aaA39b223FE8D0A0e5C4F27eAD9083C756Cc2,YFI,WETH,0.003,18,18,v2,3,Constant Product Pool,
92,SHEESHA_WETH,WETH_SHEESHA,uniswap,uniswap_v2,0x602414A63c90801DC4337eE440b3454A6d2c275b,0x232FB065D9d24c34708eeDbF03724f2e95ABE768,0xC02aaA39b223FE8D0A0e5C4F27eAD9083C756Cc2,SHEESHA,WETH,0.003,18,18,v2,3,Constant Product Pool,
94,NMR_WETH,WETH_NMR,uniswap,uniswap_v2,0xB784CED6994c928170B417BBd052A096c6fB17E2,0x1776e1F26f98b1A5dF9cD347953a26dd3Cb46671,0xC02aaA39b223FE8D0A0e5C4F27eAD9083C756Cc2,NMR,WETH,0.003,18,18,v2,3,Constant Product Pool,
96,USDC_USDT,USDT_USDC,uniswap,uniswap_v2,0x3041CbD36888bECc7bbCBc0045E3B1f144466f5f,0xA0b86991c6218b36c1d19D4a2e9Eb0cE3606eB48,0xdAC17F958D2ee523a2206206994597C13D831ec7,USDC,USDT,0.003,6,6,v2,3,Constant Product Pool,
98,DAI_USDC,USDC_DAI,uniswap,uniswap_v2,0xAE461cA67B15dc8dc81CE7615e0320dA1A9aB8D5,0x6B175474E89094C44Da98b954EedeAC495271d0F,0xA0b86991c6218b36c1d19D4a2e9Eb0cE3606eB48,DAI,USDC,0.003,18,6,v2,3,Constant Product Pool,
100,DAI_USDT,USDT_DAI,uniswap,uniswap_v2,0xB20bd5D04BE54f870D5C0d3cA85d82b34B836405,0x6B175474E89094C44Da98b954EedeAC495271d0F,0xdAC17F958D2ee523a2206206994597C13D831ec7,DAI,USDT,0.003,18,6,v2,3,Constant Product Pool,
176,DAI_USDT_100,USDT_DAI_100,uniswap,uniswap_v3,0x48DA0965ab2d2cbf1C17C09cFB5Cbe67Ad5B1406,0x6B175474E89094C44Da98b954EedeAC495271d0F,0xdAC17F958D2ee523a2206206994597C13D831ec7,DAI,USDT,100,18,6,v3,4,Constant Product Pool,
177,WSTETH_WETH_100,WETH_WSTETH_100,uniswap,uniswap_v3,0x109830a1AAaD605BbF02a9dFA7B0B92EC2FB7dAa,0x7f39C581F595B53c5cb19bD0b3f8dA6c935E2Ca0,0xC02aaA39b223FE8D0A0e5C4F27eAD9083C756Cc2,WSTETH,WETH,100,18,18,v3,4,Constant Product Pool,
178,USDC_USDT_100,USDT_USDC_100,uniswap,uniswap_v3,0x3416cF6C708Da44DB2624D63ea0AAef7113527C6,0xA0b86991c6218b36c1d19D4a2e9Eb0cE3606eB48,0xdAC17F958D2ee523a2206206994597C13D831ec7,USDC,USDT,100,6,6,v3,4,Constant Product Pool,
179,WBTC_WETH_100,WETH_WBTC_100,uniswap,uniswap_v3,0xe6ff8b9A37B0fab776134636D9981Aa778c4e718,0x2260FAC5E5542a773Aa44fBCfeDf7C193bc2C599,0xC02aaA39b223FE8D0A0e5C4F27eAD9083C756Cc2,WBTC,WETH,100,8,18,v3,4,Constant Product Pool,
180,USDC_WETH_100,WETH_USDC_100,uniswap,uniswap_v3,0xE0554a476A092703abdB3Ef35c80e0D76d32939F,0xA0b86991c6218b36c1d19D4a2e9Eb0cE3606eB48,0xC02aaA39b223FE8D0A0e5C4F27eAD9083C756Cc2,USDC,WETH,100,6,18,v3,4,Constant Product Pool,
181,DAI_USDC_100,USDC_DAI_100,uniswap,uniswap_v3,0x5777d92f208679DB4b9778590Fa3CAB3aC9e2168,0x6B175474E89094C44Da98b954EedeAC495271d0F,0xA0b86991c6218b36c1d19D4a2e9Eb0cE3606eB48,DAI,USDC,100,18,6,v3,4,Constant Product Pool,
182,LINK_DAI_500,DAI_LINK_500,uniswap,uniswap_v3,0x3209C64BF470FAFEcB8b87Db3D8ac1bAa3eCF629,0x514910771AF9Ca656af840dff83E8264EcF986CA,0x6B175474E89094C44Da98b954EedeAC495271d0F,LINK,DAI,500,18,18,v3,4,Constant Product Pool,
183,WSTETH_WETH_500,WETH_WSTETH_500,uniswap,uniswap_v3,0xD340B57AAcDD10F96FC1CF10e15921936F41E29c,0x7f39C581F595B53c5cb19bD0b3f8dA6c935E2Ca0,0xC02aaA39b223FE8D0A0e5C4F27eAD9083C756Cc2,WSTETH,WETH,500,18,18,v3,4,Constant Product Pool,
184,USDC_USDT_500,USDT_USDC_500,uniswap,uniswap_v3,0x7858E59e0C01EA06Df3aF3D20aC7B0003275D4Bf,0xA0b86991c6218b36c1d19D4a2e9Eb0cE3606eB48,0xdAC17F958D2ee523a2206206994597C13D831ec7,USDC,USDT,500,6,6,v3,4,Constant Product Pool,
185,MATIC_WETH_500,WETH_MATIC_500,uniswap,uniswap_v3,0xe3baA96aD46457d9e6cDD4e32ABC11e2C124eC49,0x7D1AfA7B718fb893dB30A3aBc0Cfc608AaCfeBB0,0xC02aaA39b223FE8D0A0e5C4F27eAD9083C756Cc2,MATIC,WETH,500,18,18,v3,4,Constant Product Pool,
186,WSTETH_USDC_500,USDC_WSTETH_500,uniswap,uniswap_v3,0x4622Df6fB2d9Bee0DCDaCF545aCDB6a2b2f4f863,0x7f39C581F595B53c5cb19bD0b3f8dA6c935E2Ca0,0xA0b86991c6218b36c1d19D4a2e9Eb0cE3606eB48,WSTETH,USDC,500,18,6,v3,4,Constant Product Pool,
187,AAVE_WETH_500,WETH_AAVE_500,uniswap,uniswap_v3,0x4674abc5796e1334B5075326b39B748bee9EaA34,0x7Fc66500c84A76Ad7e9c93437bFc5Ac33E2DDaE9,0xC02aaA39b223FE8D0A0e5C4F27eAD9083C756Cc2,AAVE,WETH,500,18,18,v3,4,Constant Product Pool,
188,WETH_GTC_500,GTC_WETH_500,uniswap,uniswap_v3,0x60C51a68d3c75B62f723e6a2Da29C6f1fBe4B7C5,0xC02aaA39b223FE8D0A0e5C4F27eAD9083C756Cc2,0xDe30da39c46104798bB5aA3fe8B9e0e1F348163F,WETH,GTC,500,18,18,v3,4,Constant Product Pool,
189,LINK_WETH_500,WETH_LINK_500,uniswap,uniswap_v3,0x5d4F3C6fA16908609BAC31Ff148Bd002AA6b8c83,0x514910771AF9Ca656af840dff83E8264EcF986CA,0xC02aaA39b223FE8D0A0e5C4F27eAD9083C756Cc2,LINK,WETH,500,18,18,v3,4,Constant Product Pool,
190,DAI_WETH_500,WETH_DAI_500,uniswap,uniswap_v3,0x60594a405d53811d3BC4766596EFD80fd545A270,0x6B175474E89094C44Da98b954EedeAC495271d0F,0xC02aaA39b223FE8D0A0e5C4F27eAD9083C756Cc2,DAI,WETH,500,18,18,v3,4,Constant Product Pool,
191,WBTC_USDC_500,USDC_WBTC_500,uniswap,uniswap_v3,0x9a772018FbD77fcD2d25657e5C547BAfF3Fd7D16,0x2260FAC5E5542a773Aa44fBCfeDf7C193bc2C599,0xA0b86991c6218b36c1d19D4a2e9Eb0cE3606eB48,WBTC,USDC,500,8,6,v3,4,Constant Product Pool,
192,UNI_WETH_500,WETH_UNI_500,uniswap,uniswap_v3,0xfaA318479b7755b2dBfDD34dC306cb28B420Ad12,0x1f9840a85d5aF5bf1D1762F925BDADdC4201F984,0xC02aaA39b223FE8D0A0e5C4F27eAD9083C756Cc2,UNI,WETH,500,18,18,v3,4,Constant Product Pool,
193,WETH_USDT_500,USDT_WETH_500,uniswap,uniswap_v3,0x11b815efB8f581194ae79006d24E0d814B7697F6,0xC02aaA39b223FE8D0A0e5C4F27eAD9083C756Cc2,0xdAC17F958D2ee523a2206206994597C13D831ec7,WETH,USDT,500,18,6,v3,4,Constant Product Pool,
194,UNI_DAI_500,DAI_UNI_500,uniswap,uniswap_v3,0x57D7d040438730d4029794799dEEd8601E23fF80,0x1f9840a85d5aF5bf1D1762F925BDADdC4201F984,0x6B175474E89094C44Da98b954EedeAC495271d0F,UNI,DAI,500,18,18,v3,4,Constant Product Pool,
195,DAI_USDT_500,USDT_DAI_500,uniswap,uniswap_v3,0x6f48ECa74B38d2936B02ab603FF4e36A6C0E3A77,0x6B175474E89094C44Da98b954EedeAC495271d0F,0xdAC17F958D2ee523a2206206994597C13D831ec7,DAI,USDT,500,18,6,v3,4,Constant Product Pool,
196,DAI_USDC_500,USDC_DAI_500,uniswap,uniswap_v3,0x6c6Bc977E13Df9b0de53b251522280BB72383700,0x6B175474E89094C44Da98b954EedeAC495271d0F,0xA0b86991c6218b36c1d19D4a2e9Eb0cE3606eB48,DAI,USDC,500,18,6,v3,4,Constant Product Pool,
197,USDC_WETH_500,WETH_USDC_500,uniswap,uniswap_v3,0x88e6A0c2dDD26FEEb64F039a2c41296FcB3f5640,0xA0b86991c6218b36c1d19D4a2e9Eb0cE3606eB48,0xC02aaA39b223FE8D0A0e5C4F27eAD9083C756Cc2,USDC,WETH,500,6,18,v3,4,Constant Product Pool,
198,WBTC_WETH_500,WETH_WBTC_500,uniswap,uniswap_v3,0x4585FE77225b41b697C938B018E2Ac67Ac5a20c0,0x2260FAC5E5542a773Aa44fBCfeDf7C193bc2C599,0xC02aaA39b223FE8D0A0e5C4F27eAD9083C756Cc2,WBTC,WETH,500,8,18,v3,4,Constant Product Pool,
199,NMR_WETH_3000,WETH_NMR_3000,uniswap,uniswap_v3,0x4b1F895066058662B9fA885E87a4E4159bE0798a,0x1776e1F26f98b1A5dF9cD347953a26dd3Cb46671,0xC02aaA39b223FE8D0A0e5C4F27eAD9083C756Cc2,NMR,WETH,3000,18,18,v3,4,Constant Product Pool,
200,WETH_USDT_3000,USDT_WETH_3000,uniswap,uniswap_v3,0x4e68Ccd3E89f51C3074ca5072bbAC773960dFa36,0xC02aaA39b223FE8D0A0e5C4F27eAD9083C756Cc2,0xdAC17F958D2ee523a2206206994597C13D831ec7,WETH,USDT,3000,18,6,v3,4,Constant Product Pool,
201,WETH_GRT_3000,GRT_WETH_3000,uniswap,uniswap_v3,0x0e2c4bE9F3408E5b1FF631576D946Eb8C224b5ED,0xC02aaA39b223FE8D0A0e5C4F27eAD9083C756Cc2,0xc944E90C64B2c07662A292be6244BDf05Cda44a7,WETH,GRT,3000,18,18,v3,4,Constant Product Pool,
202,LRC_WETH_3000,WETH_LRC_3000,uniswap,uniswap_v3,0xe1d92f1De49CAEC73514f696FEa2a7d5441498E5,0xBBbbCA6A901c926F240b89EacB641d8Aec7AEafD,0xC02aaA39b223FE8D0A0e5C4F27eAD9083C756Cc2,LRC,WETH,3000,18,18,v3,4,Constant Product Pool,
203,LINK_DAI_3000,DAI_LINK_3000,uniswap,uniswap_v3,0x091C0158ab410bd73ca1541409D5A22E90146a04,0x514910771AF9Ca656af840dff83E8264EcF986CA,0x6B175474E89094C44Da98b954EedeAC495271d0F,LINK,DAI,3000,18,18,v3,4,Constant Product Pool,
204,AAVE_USDC_3000,USDC_AAVE_3000,uniswap,uniswap_v3,0xdceaf5d0E5E0dB9596A47C0c4120654e80B1d706,0x7Fc66500c84A76Ad7e9c93437bFc5Ac33E2DDaE9,0xA0b86991c6218b36c1d19D4a2e9Eb0cE3606eB48,AAVE,USDC,3000,18,6,v3,4,Constant Product Pool,
205,GRT_USDT_3000,USDT_GRT_3000,uniswap,uniswap_v3,0x54368140588Da94240B93136aA1C485EB502A5cb,0xc944E90C64B2c07662A292be6244BDf05Cda44a7,0xdAC17F958D2ee523a2206206994597C13D831ec7,GRT,USDT,3000,18,6,v3,4,Constant Product Pool,
206,DAI_USDT_3000,USDT_DAI_3000,uniswap,uniswap_v3,0x4773E2C1c0B400a16DfeC4ca6E305141859a5542,0x6B175474E89094C44Da98b954EedeAC495271d0F,0xdAC17F958D2ee523a2206206994597C13D831ec7,DAI,USDT,3000,18,6,v3,4,Constant Product Pool,
207,MATIC_USDT_3000,USDT_MATIC_3000,uniswap,uniswap_v3,0x68F73e2180024DB5B54E0E119d4F5128953F9417,0x7D1AfA7B718fb893dB30A3aBc0Cfc608AaCfeBB0,0xdAC17F958D2ee523a2206206994597C13D831ec7,MATIC,USDT,3000,18,6,v3,4,Constant Product Pool,
208,LINK_AAVE_3000,AAVE_LINK_3000,uniswap,uniswap_v3,0x14243EA6bB3d64C8d54A1f47B077e23394D6528A,0x514910771AF9Ca656af840dff83E8264EcF986CA,0x7Fc66500c84A76Ad7e9c93437bFc5Ac33E2DDaE9,LINK,AAVE,3000,18,18,v3,4,Constant Product Pool,
209,USDC_GRT_3000,GRT_USDC_3000,uniswap,uniswap_v3,0xB06E7Ed37CFA8F0f2888355DD1913e45412798c5,0xA0b86991c6218b36c1d19D4a2e9Eb0cE3606eB48,0xc944E90C64B2c07662A292be6244BDf05Cda44a7,USDC,GRT,3000,6,18,v3,4,Constant Product Pool,
210,WETH_RARI_3000,RARI_WETH_3000,uniswap,uniswap_v3,0xFAaCE66BD25abFF62718AbD6DB97560E414eC074,0xC02aaA39b223FE8D0A0e5C4F27eAD9083C756Cc2,0xFca59Cd816aB1eaD66534D82bc21E7515cE441CF,WETH,RARI,3000,18,18,v3,4,Constant Product Pool,
211,DAI_GTC_3000,GTC_DAI_3000,uniswap,uniswap_v3,0xfe439605633F9AFE8EC3e0E075bc12e2A2204C1f,0x6B175474E89094C44Da98b954EedeAC495271d0F,0xDe30da39c46104798bB5aA3fe8B9e0e1F348163F,DAI,GTC,3000,18,18,v3,4,Constant Product Pool,
212,WOO_WETH_3000,WETH_WOO_3000,uniswap,uniswap_v3,0x122E55503A0b2E5cD528EFfa44D0b2fea300f24b,0x4691937a7508860F876c9c0a2a617E7d9E945D4B,0xC02aaA39b223FE8D0A0e5C4F27eAD9083C756Cc2,WOO,WETH,3000,18,18,v3,4,Constant Product Pool,
213,WETH_ENJ_3000,ENJ_WETH_3000,uniswap,uniswap_v3,0xe16Be1798F860bC1EB0FEb64cD67Ca00AE9b6E58,0xC02aaA39b223FE8D0A0e5C4F27eAD9083C756Cc2,0xF629cBd94d3791C9250152BD8dfBDF380E2a3B9c,WETH,ENJ,3000,18,18,v3,4,Constant Product Pool,
214,WETH_ENS_3000,ENS_WETH_3000,uniswap,uniswap_v3,0x92560C178cE069CC014138eD3C2F5221Ba71f58a,0xC02aaA39b223FE8D0A0e5C4F27eAD9083C756Cc2,0xC18360217D8F7Ab5e7c516566761Ea12Ce7F9D72,WETH,ENS,3000,18,18,v3,4,Constant Product Pool,
215,UNI_WETH_3000,WETH_UNI_3000,uniswap,uniswap_v3,0x1d42064Fc4Beb5F8aAF85F4617AE8b3b5B8Bd801,0x1f9840a85d5aF5bf1D1762F925BDADdC4201F984,0xC02aaA39b223FE8D0A0e5C4F27eAD9083C756Cc2,UNI,WETH,3000,18,18,v3,4,Constant Product Pool,
216,DAI_WETH_3000,WETH_DAI_3000,uniswap,uniswap_v3,0xC2e9F25Be6257c210d7Adf0D4Cd6E3E881ba25f8,0x6B175474E89094C44Da98b954EedeAC495271d0F,0xC02aaA39b223FE8D0A0e5C4F27eAD9083C756Cc2,DAI,WETH,3000,18,18,v3,4,Constant Product Pool,
217,SNX_WETH_3000,WETH_SNX_3000,uniswap,uniswap_v3,0xEDe8dd046586d22625Ae7fF2708F879eF7bdb8CF,0xC011a73ee8576Fb46F5E1c5751cA3B9Fe0af2a6F,0xC02aaA39b223FE8D0A0e5C4F27eAD9083C756Cc2,SNX,WETH,3000,18,18,v3,4,Constant Product Pool,
218,DAI_MATIC_3000,MATIC_DAI_3000,uniswap,uniswap_v3,0x07510b2DD84bF8187063a3c49533663518C2B6b7,0x6B175474E89094C44Da98b954EedeAC495271d0F,0x7D1AfA7B718fb893dB30A3aBc0Cfc608AaCfeBB0,DAI,MATIC,3000,18,18,v3,4,Constant Product Pool,
219,RLC_WETH_3000,WETH_RLC_3000,uniswap,uniswap_v3,0x5C5a53F215771742C711652FC375eF31d592dcab,0x607F4C5BB672230e8672085532f7e901544a7375,0xC02aaA39b223FE8D0A0e5C4F27eAD9083C756Cc2,RLC,WETH,3000,9,18,v3,4,Constant Product Pool,
220,USDT_GTC_3000,GTC_USDT_3000,uniswap,uniswap_v3,0x2a372C76Aff0b6393c12520566a626fa6810f4C0,0xdAC17F958D2ee523a2206206994597C13D831ec7,0xDe30da39c46104798bB5aA3fe8B9e0e1F348163F,USDT,GTC,3000,6,18,v3,4,Constant Product Pool,
221,MATIC_WETH_3000,WETH_MATIC_3000,uniswap,uniswap_v3,0x290A6a7460B308ee3F19023D2D00dE604bcf5B42,0x7D1AfA7B718fb893dB30A3aBc0Cfc608AaCfeBB0,0xC02aaA39b223FE8D0A0e5C4F27eAD9083C756Cc2,MATIC,WETH,3000,18,18,v3,4,Constant Product Pool,
222,DAI_ENS_3000,ENS_DAI_3000,uniswap,uniswap_v3,0xD358e854F10363f37Fd4de0134971869B72f096C,0x6B175474E89094C44Da98b954EedeAC495271d0F,0xC18360217D8F7Ab5e7c516566761Ea12Ce7F9D72,DAI,ENS,3000,18,18,v3,4,Constant Product Pool,
223,LINK_USDC_3000,USDC_LINK_3000,uniswap,uniswap_v3,0xFAD57d2039C21811C8F2B5D5B65308aa99D31559,0x514910771AF9Ca656af840dff83E8264EcF986CA,0xA0b86991c6218b36c1d19D4a2e9Eb0cE3606eB48,LINK,USDC,3000,18,6,v3,4,Constant Product Pool,
224,WSTETH_WETH_3000,WETH_WSTETH_3000,uniswap,uniswap_v3,0xC12aF0C4AA39D3061c56cD3CB19f5e62dEeaeBdE,0x7f39C581F595B53c5cb19bD0b3f8dA6c935E2Ca0,0xC02aaA39b223FE8D0A0e5C4F27eAD9083C756Cc2,WSTETH,WETH,3000,18,18,v3,4,Constant Product Pool,
225,UNI_LINK_3000,LINK_UNI_3000,uniswap,uniswap_v3,0x9f178e86E42DDF2379CB3D2AcF9Ed67A1eD2550a,0x1f9840a85d5aF5bf1D1762F925BDADdC4201F984,0x514910771AF9Ca656af840dff83E8264EcF986CA,UNI,LINK,3000,18,18,v3,4,Constant Product Pool,
226,QNT_WETH_3000,WETH_QNT_3000,uniswap,uniswap_v3,0x24EE2c6B9597F035088CDa8575E9D5e15a84B9DF,0x4a220E6096B25EADb88358cb44068A3248254675,0xC02aaA39b223FE8D0A0e5C4F27eAD9083C756Cc2,QNT,WETH,3000,18,18,v3,4,Constant Product Pool,
227,USDC_GTC_3000,GTC_USDC_3000,uniswap,uniswap_v3,0x0EEDDDcF6e26495d2Bb6fc21Fd565Bf20818ec81,0xA0b86991c6218b36c1d19D4a2e9Eb0cE3606eB48,0xDe30da39c46104798bB5aA3fe8B9e0e1F348163F,USDC,GTC,3000,6,18,v3,4,Constant Product Pool,
228,WBTC_LINK_3000,LINK_WBTC_3000,uniswap,uniswap_v3,0x618004783d422DfB792D07D742549D5A24648dF2,0x2260FAC5E5542a773Aa44fBCfeDf7C193bc2C599,0x514910771AF9Ca656af840dff83E8264EcF986CA,WBTC,LINK,3000,8,18,v3,4,Constant Product Pool,
229,REN_DAI_3000,DAI_REN_3000,uniswap,uniswap_v3,0x509e47fa60138b8aFF8B943491907f411751F831,0x408e41876cCCDC0F92210600ef50372656052a38,0x6B175474E89094C44Da98b954EedeAC495271d0F,REN,DAI,3000,18,18,v3,4,Constant Product Pool,
230,USDC_WETH_3000,WETH_USDC_3000,uniswap,uniswap_v3,0x8ad599c3A0ff1De082011EFDDc58f1908eb6e6D8,0xA0b86991c6218b36c1d19D4a2e9Eb0cE3606eB48,0xC02aaA39b223FE8D0A0e5C4F27eAD9083C756Cc2,USDC,WETH,3000,6,18,v3,4,Constant Product Pool,
231,WETH_GTC_3000,GTC_WETH_3000,uniswap,uniswap_v3,0xD017617f6F0fD22796E137a8240cc38F52a147B2,0xC02aaA39b223FE8D0A0e5C4F27eAD9083C756Cc2,0xDe30da39c46104798bB5aA3fe8B9e0e1F348163F,WETH,GTC,3000,18,18,v3,4,Constant Product Pool,
232,USDC_ENS_3000,ENS_USDC_3000,uniswap,uniswap_v3,0x619154DBD96b4c1A8112651DB9A451E475daf77F,0xA0b86991c6218b36c1d19D4a2e9Eb0cE3606eB48,0xC18360217D8F7Ab5e7c516566761Ea12Ce7F9D72,USDC,ENS,3000,6,18,v3,4,Constant Product Pool,
233,WETH_DIP_3000,DIP_WETH_3000,uniswap,uniswap_v3,0xEfc19bA107BF1ce57a7AB5DEa228Fffb899abEb0,0xC02aaA39b223FE8D0A0e5C4F27eAD9083C756Cc2,0xc719d010B63E5bbF2C0551872CD5316ED26AcD83,WETH,DIP,3000,18,18,v3,4,Constant Product Pool,
234,CHZ_USDT_3000,USDT_CHZ_3000,uniswap,uniswap_v3,0xB0F4a77Bde7fEE134265307C5CC19abfF0ba409B,0x3506424F91fD33084466F402d5D97f05F8e3b4AF,0xdAC17F958D2ee523a2206206994597C13D831ec7,CHZ,USDT,3000,18,6,v3,4,Constant Product Pool,
235,AAVE_WETH_3000,WETH_AAVE_3000,uniswap,uniswap_v3,0x5aB53EE1d50eeF2C1DD3d5402789cd27bB52c1bB,0x7Fc66500c84A76Ad7e9c93437bFc5Ac33E2DDaE9,0xC02aaA39b223FE8D0A0e5C4F27eAD9083C756Cc2,AAVE,WETH,3000,18,18,v3,4,Constant Product Pool,
236,AAVE_USDT_3000,USDT_AAVE_3000,uniswap,uniswap_v3,0x4D1Ad4A9e61Bc0E5529d64F38199cCFca56f5a42,0x7Fc66500c84A76Ad7e9c93437bFc5Ac33E2DDaE9,0xdAC17F958D2ee523a2206206994597C13D831ec7,AAVE,USDT,3000,18,6,v3,4,Constant Product Pool,
237,REN_WETH_3000,WETH_REN_3000,uniswap,uniswap_v3,0x2dD56b633FAa1A5B46107d248714C9cCB6e20920,0x408e41876cCCDC0F92210600ef50372656052a38,0xC02aaA39b223FE8D0A0e5C4F27eAD9083C756Cc2,REN,WETH,3000,18,18,v3,4,Constant Product Pool,
238,ANKR_WETH_3000,WETH_ANKR_3000,uniswap,uniswap_v3,0x13dC0a39dc00F394E030B97b0B569dedBe634c0d,0x8290333ceF9e6D528dD5618Fb97a76f268f3EDD4,0xC02aaA39b223FE8D0A0e5C4F27eAD9083C756Cc2,ANKR,WETH,3000,18,18,v3,4,Constant Product Pool,
239,WBTC_USDC_3000,USDC_WBTC_3000,uniswap,uniswap_v3,0x99ac8cA7087fA4A2A1FB6357269965A2014ABc35,0x2260FAC5E5542a773Aa44fBCfeDf7C193bc2C599,0xA0b86991c6218b36c1d19D4a2e9Eb0cE3606eB48,WBTC,USDC,3000,8,6,v3,4,Constant Product Pool,
240,TRAC_WETH_3000,WETH_TRAC_3000,uniswap,uniswap_v3,0xb1914469141Ebb6e244e75cEe3f35d43BF6B85e5,0xaA7a9CA87d3694B5755f213B5D04094b8d0F0A6F,0xC02aaA39b223FE8D0A0e5C4F27eAD9083C756Cc2,TRAC,WETH,3000,18,18,v3,4,Constant Product Pool,
241,UNI_AAVE_3000,AAVE_UNI_3000,uniswap,uniswap_v3,0x59c38b6775Ded821f010DbD30eCabdCF84E04756,0x1f9840a85d5aF5bf1D1762F925BDADdC4201F984,0x7Fc66500c84A76Ad7e9c93437bFc5Ac33E2DDaE9,UNI,AAVE,3000,18,18,v3,4,Constant Product Pool,
242,WBTC_DAI_3000,DAI_WBTC_3000,uniswap,uniswap_v3,0x391E8501b626C623d39474AfcA6f9e46c2686649,0x2260FAC5E5542a773Aa44fBCfeDf7C193bc2C599,0x6B175474E89094C44Da98b954EedeAC495271d0F,WBTC,DAI,3000,8,18,v3,4,Constant Product Pool,
243,WETH_RPL_3000,RPL_WETH_3000,uniswap,uniswap_v3,0xe42318eA3b998e8355a3Da364EB9D48eC725Eb45,0xC02aaA39b223FE8D0A0e5C4F27eAD9083C756Cc2,0xD33526068D116cE69F19A9ee46F0bd304F21A51f,WETH,RPL,3000,18,18,v3,4,Constant Product Pool,
244,UNI_USDT_3000,USDT_UNI_3000,uniswap,uniswap_v3,0x3470447f3CecfFAc709D3e783A307790b0208d60,0x1f9840a85d5aF5bf1D1762F925BDADdC4201F984,0xdAC17F958D2ee523a2206206994597C13D831ec7,UNI,USDT,3000,18,6,v3,4,Constant Product Pool,
245,BAT_WETH_3000,WETH_BAT_3000,uniswap,uniswap_v3,0xAE614a7a56cB79c04Df2aeBA6f5dAB80A39CA78E,0x0D8775F648430679A709E98d2b0Cb6250d2887EF,0xC02aaA39b223FE8D0A0e5C4F27eAD9083C756Cc2,BAT,WETH,3000,18,18,v3,4,Constant Product Pool,
246,UNI_DAI_3000,DAI_UNI_3000,uniswap,uniswap_v3,0x7cf70eD6213F08b70316bD80F7c2ddDc94E41aC5,0x1f9840a85d5aF5bf1D1762F925BDADdC4201F984,0x6B175474E89094C44Da98b954EedeAC495271d0F,UNI,DAI,3000,18,18,v3,4,Constant Product Pool,
247,YFI_WETH_3000,WETH_YFI_3000,uniswap,uniswap_v3,0x04916039B1f59D9745Bf6E0a21f191D1e0A84287,0x0bc529c00C6401aEF6D220BE8C6Ea1667F6Ad93e,0xC02aaA39b223FE8D0A0e5C4F27eAD9083C756Cc2,YFI,WETH,3000,18,18,v3,4,Constant Product Pool,
248,MANA_USDC_3000,USDC_MANA_3000,uniswap,uniswap_v3,0xCC6C15c979e4e1c6bAF6b4ed9Ca143f84Fe15615,0x0F5D2fB29fb7d3CFeE444a200298f468908cC942,0xA0b86991c6218b36c1d19D4a2e9Eb0cE3606eB48,MANA,USDC,3000,18,6,v3,4,Constant Product Pool,
249,UNI_WBTC_3000,WBTC_UNI_3000,uniswap,uniswap_v3,0x8F0CB37cdFF37E004E0088f563E5fe39E05CCC5B,0x1f9840a85d5aF5bf1D1762F925BDADdC4201F984,0x2260FAC5E5542a773Aa44fBCfeDf7C193bc2C599,UNI,WBTC,3000,18,8,v3,4,Constant Product Pool,
250,DAI_USDC_3000,USDC_DAI_3000,uniswap,uniswap_v3,0xa63b490aA077f541c9d64bFc1Cc0db2a752157b5,0x6B175474E89094C44Da98b954EedeAC495271d0F,0xA0b86991c6218b36c1d19D4a2e9Eb0cE3606eB48,DAI,USDC,3000,18,6,v3,4,Constant Product Pool,
251,MKR_WETH_3000,WETH_MKR_3000,uniswap,uniswap_v3,0xe8c6c9227491C0a8156A0106A0204d881BB7E531,0x9f8F72aA9304c8B593d555F12eF6589cC3A579A2,0xC02aaA39b223FE8D0A0e5C4F27eAD9083C756Cc2,MKR,WETH,3000,18,18,v3,4,Constant Product Pool,
252,LINK_WETH_3000,WETH_LINK_3000,uniswap,uniswap_v3,0xa6Cc3C2531FdaA6Ae1A3CA84c2855806728693e8,0x514910771AF9Ca656af840dff83E8264EcF986CA,0xC02aaA39b223FE8D0A0e5C4F27eAD9083C756Cc2,LINK,WETH,3000,18,18,v3,4,Constant Product Pool,
253,ENS_USDT_3000,USDT_ENS_3000,uniswap,uniswap_v3,0x09Aa63b7a22eEfC372196AaCd5b53441eD390BFb,0xC18360217D8F7Ab5e7c516566761Ea12Ce7F9D72,0xdAC17F958D2ee523a2206206994597C13D831ec7,ENS,USDT,3000,18,6,v3,4,Constant Product Pool,
254,DAO_WETH_3000,WETH_DAO_3000,uniswap,uniswap_v3,0x087a2050F5179130e5687B410A2d41633278717a,0x0f51bb10119727a7e5eA3538074fb341F56B09Ad,0xC02aaA39b223FE8D0A0e5C4F27eAD9083C756Cc2,DAO,WETH,3000,18,18,v3,4,Constant Product Pool,
255,BORING_WETH_3000,WETH_BORING_3000,uniswap,uniswap_v3,0x917C52869df752d784eC73fa0881898f9Bfd0fd8,0xBC19712FEB3a26080eBf6f2F7849b417FdD792CA,0xC02aaA39b223FE8D0A0e5C4F27eAD9083C756Cc2,BORING,WETH,3000,18,18,v3,4,Constant Product Pool,
256,WBTC_AAVE_3000,AAVE_WBTC_3000,uniswap,uniswap_v3,0x98E45940d0c76898f5659b8FC78895F35A39eb43,0x2260FAC5E5542a773Aa44fBCfeDf7C193bc2C599,0x7Fc66500c84A76Ad7e9c93437bFc5Ac33E2DDaE9,WBTC,AAVE,3000,8,18,v3,4,Constant Product Pool,
257,DAI_MKR_3000,MKR_DAI_3000,uniswap,uniswap_v3,0x2A84E2BD2E961b1557D6e516cA647268b432cbA4,0x6B175474E89094C44Da98b954EedeAC495271d0F,0x9f8F72aA9304c8B593d555F12eF6589cC3A579A2,DAI,MKR,3000,18,18,v3,4,Constant Product Pool,
258,MATIC_USDC_3000,USDC_MATIC_3000,uniswap,uniswap_v3,0x07A6E955bA4345BAe83Ac2A6fAa771fddd8A2011,0x7D1AfA7B718fb893dB30A3aBc0Cfc608AaCfeBB0,0xA0b86991c6218b36c1d19D4a2e9Eb0cE3606eB48,MATIC,USDC,3000,18,6,v3,4,Constant Product Pool,
259,MANA_WETH_3000,WETH_MANA_3000,uniswap,uniswap_v3,0x8661aE7918C0115Af9e3691662f605e9c550dDc9,0x0F5D2fB29fb7d3CFeE444a200298f468908cC942,0xC02aaA39b223FE8D0A0e5C4F27eAD9083C756Cc2,MANA,WETH,3000,18,18,v3,4,Constant Product Pool,
260,LINK_USDT_3000,USDT_LINK_3000,uniswap,uniswap_v3,0xac5A2c404EbBa22a869998089AC7893ff4E1F0a7,0x514910771AF9Ca656af840dff83E8264EcF986CA,0xdAC17F958D2ee523a2206206994597C13D831ec7,LINK,USDT,3000,18,6,v3,4,Constant Product Pool,
261,WBTC_WETH_3000,WETH_WBTC_3000,uniswap,uniswap_v3,0xCBCdF9626bC03E24f779434178A73a0B4bad62eD,0x2260FAC5E5542a773Aa44fBCfeDf7C193bc2C599,0xC02aaA39b223FE8D0A0e5C4F27eAD9083C756Cc2,WBTC,WETH,3000,8,18,v3,4,Constant Product Pool,
262,DAO_USDC_3000,USDC_DAO_3000,uniswap,uniswap_v3,0xc840464a8c3324e0bdC9429439DdE3a12205424a,0x0f51bb10119727a7e5eA3538074fb341F56B09Ad,0xA0b86991c6218b36c1d19D4a2e9Eb0cE3606eB48,DAO,USDC,3000,18,6,v3,4,Constant Product Pool,
263,INST_WETH_3000,WETH_INST_3000,uniswap,uniswap_v3,0xCba27C8e7115b4Eb50Aa14999BC0866674a96eCB,0x6f40d4A6237C257fff2dB00FA0510DeEECd303eb,0xC02aaA39b223FE8D0A0e5C4F27eAD9083C756Cc2,INST,WETH,3000,18,18,v3,4,Constant Product Pool,
264,YFI_WBTC_3000,WBTC_YFI_3000,uniswap,uniswap_v3,0x775d0C18B291B889aB3D7f16338183bbFAF63F7a,0x0bc529c00C6401aEF6D220BE8C6Ea1667F6Ad93e,0x2260FAC5E5542a773Aa44fBCfeDf7C193bc2C599,YFI,WBTC,3000,18,8,v3,4,Constant Product Pool,
265,UNI_USDC_3000,USDC_UNI_3000,uniswap,uniswap_v3,0xD0fC8bA7E267f2bc56044A7715A489d851dC6D78,0x1f9840a85d5aF5bf1D1762F925BDADdC4201F984,0xA0b86991c6218b36c1d19D4a2e9Eb0cE3606eB48,UNI,USDC,3000,18,6,v3,4,Constant Product Pool,
266,CHZ_USDC_3000,USDC_CHZ_3000,uniswap,uniswap_v3,0x6f0C491f22c959D2280eD7F020fE1cd41BC285F8,0x3506424F91fD33084466F402d5D97f05F8e3b4AF,0xA0b86991c6218b36c1d19D4a2e9Eb0cE3606eB48,CHZ,USDC,3000,18,6,v3,4,Constant Product Pool,
267,USDC_USDT_3000,USDT_USDC_3000,uniswap,uniswap_v3,0xEe4Cf3b78A74aFfa38C6a926282bCd8B5952818d,0xA0b86991c6218b36c1d19D4a2e9Eb0cE3606eB48,0xdAC17F958D2ee523a2206206994597C13D831ec7,USDC,USDT,3000,6,6,v3,4,Constant Product Pool,
268,QNT_USDC_3000,USDC_QNT_3000,uniswap,uniswap_v3,0x2F6a0ad19C5d30f8451831e5E7000AF24737790C,0x4a220E6096B25EADb88358cb44068A3248254675,0xA0b86991c6218b36c1d19D4a2e9Eb0cE3606eB48,QNT,USDC,3000,18,6,v3,4,Constant Product Pool,
269,WBTC_USDT_3000,USDT_WBTC_3000,uniswap,uniswap_v3,0x9Db9e0e53058C89e5B94e29621a205198648425B,0x2260FAC5E5542a773Aa44fBCfeDf7C193bc2C599,0xdAC17F958D2ee523a2206206994597C13D831ec7,WBTC,USDT,3000,8,6,v3,4,Constant Product Pool,
270,WNXM_WETH_3000,WETH_WNXM_3000,uniswap,uniswap_v3,0xC02D0fA00C0bEC48186026c71da2E54Ebf680139,0x0d438F3b5175Bebc262bF23753C1E53d03432bDE,0xC02aaA39b223FE8D0A0e5C4F27eAD9083C756Cc2,WNXM,WETH,3000,18,18,v3,4,Constant Product Pool,
271,OCEAN_WETH_3000,WETH_OCEAN_3000,uniswap,uniswap_v3,0x283E2E83b7f3e297C4B7c02114Ab0196B001a109,0x967da4048cD07aB37855c090aAF366e4ce1b9F48,0xC02aaA39b223FE8D0A0e5C4F27eAD9083C756Cc2,OCEAN,WETH,3000,18,18,v3,4,Constant Product Pool,
272,QNT_MATIC_10000,MATIC_QNT_10000,uniswap,uniswap_v3,0xd4C1fdc6e4c7bafef4957b819Bca1aa2Ca4994d1,0x4a220E6096B25EADb88358cb44068A3248254675,0x7D1AfA7B718fb893dB30A3aBc0Cfc608AaCfeBB0,QNT,MATIC,10000,18,18,v3,4,Constant Product Pool,
273,SNX_WETH_10000,WETH_SNX_10000,uniswap,uniswap_v3,0xf5ce0293C24FD0990E0a5758E53f66a36cA0118f,0xC011a73ee8576Fb46F5E1c5751cA3B9Fe0af2a6F,0xC02aaA39b223FE8D0A0e5C4F27eAD9083C756Cc2,SNX,WETH,10000,18,18,v3,4,Constant Product Pool,
274,QNT_WETH_10000,WETH_QNT_10000,uniswap,uniswap_v3,0xe310D7acDB331AF81904E747D6ec005de0Ac1162,0x4a220E6096B25EADb88358cb44068A3248254675,0xC02aaA39b223FE8D0A0e5C4F27eAD9083C756Cc2,QNT,WETH,10000,18,18,v3,4,Constant Product Pool,
275,MFG_WETH_10000,WETH_MFG_10000,uniswap,uniswap_v3,0x3C8e1997D9f93c989D4D7660B6Ca52C451AD7554,0x6710c63432A2De02954fc0f851db07146a6c0312,0xC02aaA39b223FE8D0A0e5C4F27eAD9083C756Cc2,MFG,WETH,10000,18,18,v3,4,Constant Product Pool,
276,YFI_WETH_10000,WETH_YFI_10000,uniswap,uniswap_v3,0x2E8dAf55F212BE91D3fA882ccEAb193A08fddeB2,0x0bc529c00C6401aEF6D220BE8C6Ea1667F6Ad93e,0xC02aaA39b223FE8D0A0e5C4F27eAD9083C756Cc2,YFI,WETH,10000,18,18,v3,4,Constant Product Pool,
277,NMR_WETH_10000,WETH_NMR_10000,uniswap,uniswap_v3,0x8DF016708A66377DAE191Ca6F9ffF4705a3D951F,0x1776e1F26f98b1A5dF9cD347953a26dd3Cb46671,0xC02aaA39b223FE8D0A0e5C4F27eAD9083C756Cc2,NMR,WETH,10000,18,18,v3,4,Constant Product Pool,
278,XSUSHI_WETH_10000,WETH_XSUSHI_10000,uniswap,uniswap_v3,0x2e571c1479e9B5415057655e454680A61820CE65,0x8798249c2E607446EfB7Ad49eC89dD1865Ff4272,0xC02aaA39b223FE8D0A0e5C4F27eAD9083C756Cc2,XSUSHI,WETH,10000,18,18,v3,4,Constant Product Pool,
279,UNI_USDC_10000,USDC_UNI_10000,uniswap,uniswap_v3,0xE845469aAe04f8823202b011A848cf199420B4C1,0x1f9840a85d5aF5bf1D1762F925BDADdC4201F984,0xA0b86991c6218b36c1d19D4a2e9Eb0cE3606eB48,UNI,USDC,10000,18,6,v3,4,Constant Product Pool,
280,BAT_WETH_10000,WETH_BAT_10000,uniswap,uniswap_v3,0xb66776014d002479aCE38EC16e604e465851A33B,0x0D8775F648430679A709E98d2b0Cb6250d2887EF,0xC02aaA39b223FE8D0A0e5C4F27eAD9083C756Cc2,BAT,WETH,10000,18,18,v3,4,Constant Product Pool,
281,UNI_WETH_10000,WETH_UNI_10000,uniswap,uniswap_v3,0x360b9726186C0F62cc719450685ce70280774Dc8,0x1f9840a85d5aF5bf1D1762F925BDADdC4201F984,0xC02aaA39b223FE8D0A0e5C4F27eAD9083C756Cc2,UNI,WETH,10000,18,18,v3,4,Constant Product Pool,
282,DAI_MATIC_10000,MATIC_DAI_10000,uniswap,uniswap_v3,0x98c8BE139D73aC27bd96A0be97F0Abf17EfcaD45,0x6B175474E89094C44Da98b954EedeAC495271d0F,0x7D1AfA7B718fb893dB30A3aBc0Cfc608AaCfeBB0,DAI,MATIC,10000,18,18,v3,4,Constant Product Pool,
283,MKR_USDC_10000,USDC_MKR_10000,uniswap,uniswap_v3,0xC486Ad2764D55C7dc033487D634195d6e4A6917E,0x9f8F72aA9304c8B593d555F12eF6589cC3A579A2,0xA0b86991c6218b36c1d19D4a2e9Eb0cE3606eB48,MKR,USDC,10000,18,6,v3,4,Constant Product Pool,
284,OCEAN_WETH_10000,WETH_OCEAN_10000,uniswap,uniswap_v3,0xa75Ede894Aa5E767674dd8043109B90AD4637B6F,0x967da4048cD07aB37855c090aAF366e4ce1b9F48,0xC02aaA39b223FE8D0A0e5C4F27eAD9083C756Cc2,OCEAN,WETH,10000,18,18,v3,4,Constant Product Pool,
285,HOT_USDC_10000,USDC_HOT_10000,uniswap,uniswap_v3,0xf86A418d0cbcb95A1286422B29AaE22C7b7280e9,0x6c6EE5e31d828De241282B9606C8e98Ea48526E2,0xA0b86991c6218b36c1d19D4a2e9Eb0cE3606eB48,HOT,USDC,10000,18,6,v3,4,Constant Product Pool,
286,LRC_WETH_10000,WETH_LRC_10000,uniswap,uniswap_v3,0x3589697F57218bd57290aC18aE1c11b269AD964a,0xBBbbCA6A901c926F240b89EacB641d8Aec7AEafD,0xC02aaA39b223FE8D0A0e5C4F27eAD9083C756Cc2,LRC,WETH,10000,18,18,v3,4,Constant Product Pool,
287,QNT_USDC_10000,USDC_QNT_10000,uniswap,uniswap_v3,0xb66c491e2356Bf32b7E3EA14af7F60B3eD171A22,0x4a220E6096B25EADb88358cb44068A3248254675,0xA0b86991c6218b36c1d19D4a2e9Eb0cE3606eB48,QNT,USDC,10000,18,6,v3,4,Constant Product Pool,
288,USDC_WETH_10000,WETH_USDC_10000,uniswap,uniswap_v3,0x7BeA39867e4169DBe237d55C8242a8f2fcDcc387,0xA0b86991c6218b36c1d19D4a2e9Eb0cE3606eB48,0xC02aaA39b223FE8D0A0e5C4F27eAD9083C756Cc2,USDC,WETH,10000,6,18,v3,4,Constant Product Pool,
289,MKR_WETH_10000,WETH_MKR_10000,uniswap,uniswap_v3,0x3aFdC5e6DfC0B0a507A8e023c9Dce2CAfC310316,0x9f8F72aA9304c8B593d555F12eF6589cC3A579A2,0xC02aaA39b223FE8D0A0e5C4F27eAD9083C756Cc2,MKR,WETH,10000,18,18,v3,4,Constant Product Pool,
290,LINK_WETH_10000,WETH_LINK_10000,uniswap,uniswap_v3,0x3A0f221eA8B150f3D3d27DE8928851aB5264bB65,0x514910771AF9Ca656af840dff83E8264EcF986CA,0xC02aaA39b223FE8D0A0e5C4F27eAD9083C756Cc2,LINK,WETH,10000,18,18,v3,4,Constant Product Pool,
291,USDC_LRC_10000,LRC_USDC_10000,uniswap,uniswap_v3,0x68eE3DE24256f65027eE17081453EEe1f2062f11,0xA0b86991c6218b36c1d19D4a2e9Eb0cE3606eB48,0xBBbbCA6A901c926F240b89EacB641d8Aec7AEafD,USDC,LRC,10000,6,18,v3,4,Constant Product Pool,
292,WETH_RARI_10000,RARI_WETH_10000,uniswap,uniswap_v3,0x7c7AcbA9E3474985C17f99430A6807C5cA29bB4d,0xC02aaA39b223FE8D0A0e5C4F27eAD9083C756Cc2,0xFca59Cd816aB1eaD66534D82bc21E7515cE441CF,WETH,RARI,10000,18,18,v3,4,Constant Product Pool,
293,REN_WETH_10000,WETH_REN_10000,uniswap,uniswap_v3,0x5A332599613C9460Efd8a71a4b5de1Aa5a005CFd,0x408e41876cCCDC0F92210600ef50372656052a38,0xC02aaA39b223FE8D0A0e5C4F27eAD9083C756Cc2,REN,WETH,10000,18,18,v3,4,Constant Product Pool,
294,WETH_RPL_10000,RPL_WETH_10000,uniswap,uniswap_v3,0xcf15aD9bE9d33384B74b94D63D06B4A9Bd82f640,0xC02aaA39b223FE8D0A0e5C4F27eAD9083C756Cc2,0xD33526068D116cE69F19A9ee46F0bd304F21A51f,WETH,RPL,10000,18,18,v3,4,Constant Product Pool,
295,INDEX_WETH_10000,WETH_INDEX_10000,uniswap,uniswap_v3,0x8c13148228765Ba9E84EAf940b0416a5e349A5e7,0x0954906da0Bf32d5479e25f46056d22f08464cab,0xC02aaA39b223FE8D0A0e5C4F27eAD9083C756Cc2,INDEX,WETH,10000,18,18,v3,4,Constant Product Pool,
296,MATIC_WETH_10000,WETH_MATIC_10000,uniswap,uniswap_v3,0x99C7550be72F05ec31c446cD536F8a29C89fdB77,0x7D1AfA7B718fb893dB30A3aBc0Cfc608AaCfeBB0,0xC02aaA39b223FE8D0A0e5C4F27eAD9083C756Cc2,MATIC,WETH,10000,18,18,v3,4,Constant Product Pool,
297,MFG_DAI_10000,DAI_MFG_10000,uniswap,uniswap_v3,0x3DF3E64075243d35F3B60551e0FBD4c1ef3B9752,0x6710c63432A2De02954fc0f851db07146a6c0312,0x6B175474E89094C44Da98b954EedeAC495271d0F,MFG,DAI,10000,18,18,v3,4,Constant Product Pool,
298,WBTC_SNX_10000,SNX_WBTC_10000,uniswap,uniswap_v3,0x15C11B1E07CB763aB75723BB55877B36f56C39B1,0x2260FAC5E5542a773Aa44fBCfeDf7C193bc2C599,0xC011a73ee8576Fb46F5E1c5751cA3B9Fe0af2a6F,WBTC,SNX,10000,8,18,v3,4,Constant Product Pool,
299,WETH_GTC_10000,GTC_WETH_10000,uniswap,uniswap_v3,0x06B1655b9D560de112759b4F0Bf57d6F005e72Fe,0xC02aaA39b223FE8D0A0e5C4F27eAD9083C756Cc2,0xDe30da39c46104798bB5aA3fe8B9e0e1F348163F,WETH,GTC,10000,18,18,v3,4,Constant Product Pool,
300,WETH_GRT_10000,GRT_WETH_10000,uniswap,uniswap_v3,0x46add4B3F80672989b9A1eAF62caD5206F5E2164,0xC02aaA39b223FE8D0A0e5C4F27eAD9083C756Cc2,0xc944E90C64B2c07662A292be6244BDf05Cda44a7,WETH,GRT,10000,18,18,v3,4,Constant Product Pool,
301,USDC_USDT_10000,USDT_USDC_10000,uniswap,uniswap_v3,0xbb256c2F1B677e27118b0345FD2b3894D2E6D487,0xA0b86991c6218b36c1d19D4a2e9Eb0cE3606eB48,0xdAC17F958D2ee523a2206206994597C13D831ec7,USDC,USDT,10000,6,6,v3,4,Constant Product Pool,
302,WETH_AMP_10000,AMP_WETH_10000,uniswap,uniswap_v3,0x4E57F830B0b4A82321071ead6FfD1Df1575a16e2,0xC02aaA39b223FE8D0A0e5C4F27eAD9083C756Cc2,0xfF20817765cB7f73d4bde2e66e067E58D11095C2,WETH,AMP,10000,18,18,v3,4,Constant Product Pool,
303,WETH_ENS_10000,ENS_WETH_10000,uniswap,uniswap_v3,0xb9C4a5522a2f8bA9E2fF7063Df8C02ed443337A3,0xC02aaA39b223FE8D0A0e5C4F27eAD9083C756Cc2,0xC18360217D8F7Ab5e7c516566761Ea12Ce7F9D72,WETH,ENS,10000,18,18,v3,4,Constant Product Pool,
304,USDC_SNX_10000,SNX_USDC_10000,uniswap,uniswap_v3,0x020C349A0541D76C16F501Abc6B2E9c98AdAe892,0xA0b86991c6218b36c1d19D4a2e9Eb0cE3606eB48,0xC011a73ee8576Fb46F5E1c5751cA3B9Fe0af2a6F,USDC,SNX,10000,6,18,v3,4,Constant Product Pool,
305,MANA_WETH_10000,WETH_MANA_10000,uniswap,uniswap_v3,0xD9ED2b5F292a0E319a04e6C1acA15DF97705821c,0x0F5D2fB29fb7d3CFeE444a200298f468908cC942,0xC02aaA39b223FE8D0A0e5C4F27eAD9083C756Cc2,MANA,WETH,10000,18,18,v3,4,Constant Product Pool,
306,CHZ_USDC_10000,USDC_CHZ_10000,uniswap,uniswap_v3,0xC5bccF768e4242a0b518608B4843988eC5Fb24D9,0x3506424F91fD33084466F402d5D97f05F8e3b4AF,0xA0b86991c6218b36c1d19D4a2e9Eb0cE3606eB48,CHZ,USDC,10000,18,6,v3,4,Constant Product Pool,
307,ANKR_WETH_10000,WETH_ANKR_10000,uniswap,uniswap_v3,0x70544A3657109DE732C672B7D0C0740495070326,0x8290333ceF9e6D528dD5618Fb97a76f268f3EDD4,0xC02aaA39b223FE8D0A0e5C4F27eAD9083C756Cc2,ANKR,WETH,10000,18,18,v3,4,Constant Product Pool,
308,HOT_WETH_10000,WETH_HOT_10000,uniswap,uniswap_v3,0xf7849D0852FC588210B9C0d8b26F43C0c9bc1470,0x6c6EE5e31d828De241282B9606C8e98Ea48526E2,0xC02aaA39b223FE8D0A0e5C4F27eAD9083C756Cc2,HOT,WETH,10000,18,18,v3,4,Constant Product Pool,
309,USDC_GTC_10000,GTC_USDC_10000,uniswap,uniswap_v3,0x1aD96c413367EBB4F9c8961A751cF144C9278592,0xA0b86991c6218b36c1d19D4a2e9Eb0cE3606eB48,0xDe30da39c46104798bB5aA3fe8B9e0e1F348163F,USDC,GTC,10000,6,18,v3,4,Constant Product Pool,
310,WETH_UOS_10000,UOS_WETH_10000,uniswap,uniswap_v3,0xE8b977aA5a9303fA94818441D78575e0f697aE72,0xC02aaA39b223FE8D0A0e5C4F27eAD9083C756Cc2,0xD13c7342e1ef687C5ad21b27c2b65D772cAb5C8c,WETH,UOS,10000,18,4,v3,4,Constant Product Pool,
311,UNI_DAI_10000,DAI_UNI_10000,uniswap,uniswap_v3,0xD6993E525FAdB23971a20bBb057Af9841eAE076F,0x1f9840a85d5aF5bf1D1762F925BDADdC4201F984,0x6B175474E89094C44Da98b954EedeAC495271d0F,UNI,DAI,10000,18,18,v3,4,Constant Product Pool,
312,CHZ_WETH_10000,WETH_CHZ_10000,uniswap,uniswap_v3,0x325365ED8275f6a74cac98917b7f6FaCe8da533b,0x3506424F91fD33084466F402d5D97f05F8e3b4AF,0xC02aaA39b223FE8D0A0e5C4F27eAD9083C756Cc2,CHZ,WETH,10000,18,18,v3,4,Constant Product Pool,
313,INST_WETH_10000,WETH_INST_10000,uniswap,uniswap_v3,0xc1cd3D0913f4633b43FcdDBCd7342bC9b71C676f,0x6f40d4A6237C257fff2dB00FA0510DeEECd303eb,0xC02aaA39b223FE8D0A0e5C4F27eAD9083C756Cc2,INST,WETH,10000,18,18,v3,4,Constant Product Pool,
314,WSTETH_LRC_10000,LRC_WSTETH_10000,uniswap,uniswap_v3,0x0c49D7d8E9366d48Eda30522d2815c32341dfe80,0x7f39C581F595B53c5cb19bD0b3f8dA6c935E2Ca0,0xBBbbCA6A901c926F240b89EacB641d8Aec7AEafD,WSTETH,LRC,10000,18,18,v3,4,Constant Product Pool,
315,DAI_WETH_10000,WETH_DAI_10000,uniswap,uniswap_v3,0xa80964C5bBd1A0E95777094420555fead1A26c1e,0x6B175474E89094C44Da98b954EedeAC495271d0F,0xC02aaA39b223FE8D0A0e5C4F27eAD9083C756Cc2,DAI,WETH,10000,18,18,v3,4,Constant Product Pool,
316,MFG_USDC_10000,USDC_MFG_10000,uniswap,uniswap_v3,0x27D02cfdf949447CcfE4d5A5dCB9c40aaF4AD7c4,0x6710c63432A2De02954fc0f851db07146a6c0312,0xA0b86991c6218b36c1d19D4a2e9Eb0cE3606eB48,MFG,USDC,10000,18,6,v3,4,Constant Product Pool,
317,SATA_WETH_10000,WETH_SATA_10000,uniswap,uniswap_v3,0xe72D262158F402FaF553179b2B4aFF23dfaD6d4C,0x3ebb4A4e91Ad83BE51F8d596533818b246F4bEe1,0xC02aaA39b223FE8D0A0e5C4F27eAD9083C756Cc2,SATA,WETH,10000,18,18,v3,4,Constant Product Pool,
318,UNI_ENS_10000,ENS_UNI_10000,uniswap,uniswap_v3,0x8Cbeaea71BF7C0F646f6884f82Ee31cFFa1739C4,0x1f9840a85d5aF5bf1D1762F925BDADdC4201F984,0xC18360217D8F7Ab5e7c516566761Ea12Ce7F9D72,UNI,ENS,10000,18,18,v3,4,Constant Product Pool,
319,WNXM_WETH_10000,WETH_WNXM_10000,uniswap,uniswap_v3,0x058D79a4C6eb5B11d0248993fFA1faa168DDd3C0,0x0d438F3b5175Bebc262bF23753C1E53d03432bDE,0xC02aaA39b223FE8D0A0e5C4F27eAD9083C756Cc2,WNXM,WETH,10000,18,18,v3,4,Constant Product Pool,
320,AAVE_WETH_10000,WETH_AAVE_10000,uniswap,uniswap_v3,0x1353fE67fFf8f376762b7034DC9066f0bE15a723,0x7Fc66500c84A76Ad7e9c93437bFc5Ac33E2DDaE9,0xC02aaA39b223FE8D0A0e5C4F27eAD9083C756Cc2,AAVE,WETH,10000,18,18,v3,4,Constant Product Pool,
321,WBTC_WETH_10000,WETH_WBTC_10000,uniswap,uniswap_v3,0x6Ab3bba2F41e7eAA262fa5A1A9b3932fA161526F,0x2260FAC5E5542a773Aa44fBCfeDf7C193bc2C599,0xC02aaA39b223FE8D0A0e5C4F27eAD9083C756Cc2,WBTC,WETH,10000,8,18,v3,4,Constant Product Pool,
322,YFI_USDC_10000,USDC_YFI_10000,uniswap,uniswap_v3,0xbfAcdf75F59988f18700d46f85095CDA600E2192,0x0bc529c00C6401aEF6D220BE8C6Ea1667F6Ad93e,0xA0b86991c6218b36c1d19D4a2e9Eb0cE3606eB48,YFI,USDC,10000,18,6,v3,4,Constant Product Pool,
323,USDC_RPL_10000,RPL_USDC_10000,uniswap,uniswap_v3,0x417bad05186155d022c9acdEf742AEDE3F177a5e,0xA0b86991c6218b36c1d19D4a2e9Eb0cE3606eB48,0xD33526068D116cE69F19A9ee46F0bd304F21A51f,USDC,RPL,10000,6,18,v3,4,Constant Product Pool,
324,DAI_USDC_10000,USDC_DAI_10000,uniswap,uniswap_v3,0x6958686b6348c3D6d5f2dCA3106A5C09C156873a,0x6B175474E89094C44Da98b954EedeAC495271d0F,0xA0b86991c6218b36c1d19D4a2e9Eb0cE3606eB48,DAI,USDC,10000,18,6,v3,4,Constant Product Pool,
325,WBTC_USDC_10000,USDC_WBTC_10000,uniswap,uniswap_v3,0xCBFB0745b8489973Bf7b334d54fdBd573Df7eF3c,0x2260FAC5E5542a773Aa44fBCfeDf7C193bc2C599,0xA0b86991c6218b36c1d19D4a2e9Eb0cE3606eB48,WBTC,USDC,10000,8,6,v3,4,Constant Product Pool,
326,EDEN_USDC_10000,USDC_EDEN_10000,uniswap,uniswap_v3,0x503759c1920E81D4F988D922C962ff90e11f0373,0x1559FA1b8F28238FD5D76D9f434ad86FD20D1559,0xA0b86991c6218b36c1d19D4a2e9Eb0cE3606eB48,EDEN,USDC,10000,18,6,v3,4,Constant Product Pool,
327,USDC_TEMP_10000,TEMP_USDC_10000,uniswap,uniswap_v3,0x2DEE10627A6861E92EE8684C02e28b13FAFAC304,0xA0b86991c6218b36c1d19D4a2e9Eb0cE3606eB48,0xA36FDBBAE3c9d55a1d67EE5821d53B50B63A1aB9,USDC,TEMP,10000,6,18,v3,4,Constant Product Pool,
328,WETH_USDT_10000,USDT_WETH_10000,uniswap,uniswap_v3,0xC5aF84701f98Fa483eCe78aF83F11b6C38ACA71D,0xC02aaA39b223FE8D0A0e5C4F27eAD9083C756Cc2,0xdAC17F958D2ee523a2206206994597C13D831ec7,WETH,USDT,10000,18,6,v3,4,Constant Product Pool,
329,RLC_WETH_10000,WETH_RLC_10000,uniswap,uniswap_v3,0x56Ea002B411FD5887E55329852D5777EcB170713,0x607F4C5BB672230e8672085532f7e901544a7375,0xC02aaA39b223FE8D0A0e5C4F27eAD9083C756Cc2,RLC,WETH,10000,9,18,v3,4,Constant Product Pool,
330,USDC_AMP_10000,AMP_USDC_10000,uniswap,uniswap_v3,0x75C80CE8fdDFc61641bEd16cD90c9123f0d9A020,0xA0b86991c6218b36c1d19D4a2e9Eb0cE3606eB48,0xfF20817765cB7f73d4bde2e66e067E58D11095C2,USDC,AMP,10000,6,18,v3,4,Constant Product Pool,
331,USDC_UOS_10000,UOS_USDC_10000,uniswap,uniswap_v3,0x094a28b22e1b4218d590eA6Fa916B3C5e670Ba55,0xA0b86991c6218b36c1d19D4a2e9Eb0cE3606eB48,0xD13c7342e1ef687C5ad21b27c2b65D772cAb5C8c,USDC,UOS,10000,6,4,v3,4,Constant Product Pool,
